{"type":"FeatureCollection","features":[{"type":"Feature","geometry":{"type":"Point","coordinates":[-77.1341201,38.9412122]},"properties":{"man_made":"surveillance","direction":"156","camera:type":"fixed","camera:mount":"pole","manufacturer":"Flock Safety","surveillance":"public","surveillance:type":"ALPR","surveillance:zone":"traffic","manufacturer:wikidata":"Q108485435","id":"node/13699158501","_lat":"38.941219475218475","_lon":"-77.13413000106812","timestamp":"2026-04-01T17:05:31Z","version":1,"changeset":180732501,"user":"butterfly-affinity","uid":23677048}},{"type":"Feature","geometry":{"type":"Point","coordinates":[-77.0839697,38.961073]},"properties":{"man_made":"surveillance","camera:type":"fixed","enforcement":"stop_sign","camera:mount":"street_lamp","surveillance":"traffic","surveillance:type":"camera","id":"node/13765054392","_lat":"38.9610773033869","_lon":"-77.08396196365356","timestamp":"2026-04-26T21:40:50Z","version":1,"changeset":181865635,"user":"willkmis","uid":11523236}},{"type":"Feature","geometry":{"type":"Point","coordinates":[-76.9703754,38.9626513]},"properties":{"man_made":"surveillance","direction":"95","camera:type":"fixed","manufacturer":"Flock Safety","surveillance:type":"ALPR","manufacturer:wikidata":"Q108485435","id":"node/13480294707","_lat":"38.962645667838245","_lon":"-76.97036504745483","timestamp":"2026-01-23T21:08:04Z","version":1,"changeset":177626403,"user":"CrunchDaddy","uid":23744777}},{"type":"Feature","geometry":{"type":"Point","coordinates":[-76.9696265,38.9623533]},"properties":{"man_made":"surveillance","direction":"290","camera:type":"fixed","manufacturer":"Flock Safety","surveillance:type":"ALPR","manufacturer:wikidata":"Q108485435","id":"node/13480294708","_lat":"38.96234534541804","_lon":"-76.96963548660278","timestamp":"2026-01-23T21:08:04Z","version":1,"changeset":177626403,"user":"CrunchDaddy","uid":23744777}},{"type":"Feature","geometry":{"type":"Point","coordinates":[-76.9648132,38.9429811]},"properties":{"man_made":"surveillance","camera:type":"fixed","camera:mount":"pole","surveillance":"camera","camera:direction":"95","surveillance:type":"camera","surveillance:zone":"street","id":"node/8449759179","_lat":"38.94298854949028","_lon":"-76.96480751037598","timestamp":"2021-02-23T14:47:57Z","version":2,"changeset":99836233,"user":"0x0000","uid":651903}},{"type":"Feature","geometry":{"type":"Point","coordinates":[-76.9647073,38.9429335]},"properties":{"source":"local knowledge","man_made":"surveillance","check_date":"2025-02-25","camera:type":"fixed","camera:mount":"wall","surveillance":"outdoor","camera:direction":"45","surveillance:type":"camera","surveillance:zone":"street","id":"node/8449759895","_lat":"38.94293848195747","_lon":"-76.96470022201538","timestamp":"2025-02-25T10:14:51Z","version":2,"changeset":162925270,"user":"0x0000","uid":651903}},{"type":"Feature","geometry":{"type":"Point","coordinates":[-76.965207,38.9432339]},"properties":{"man_made":"surveillance","camera:type":"dome","camera:mount":"pole","surveillance":"cctv","camera:direction":"345","surveillance:type":"camera","surveillance:zone":"area","id":"node/12830388171","_lat":"38.94323888662399","_lon":"-76.96521520614624","timestamp":"2025-05-12T13:42:34Z","version":1,"changeset":166153591,"user":"0x0000","uid":651903}},{"type":"Feature","geometry":{"type":"Point","coordinates":[-76.9652106,38.9432323]},"properties":{"man_made":"surveillance","camera:type":"fixed","camera:mount":"pole","surveillance":"traffic","camera:direction":"345","surveillance:type":"camera","surveillance:zone":"street","id":"node/12830388170","_lat":"38.94323888662399","_lon":"-76.96521520614624","timestamp":"2025-05-12T13:42:34Z","version":1,"changeset":166153591,"user":"0x0000","uid":651903}},{"type":"Feature","geometry":{"type":"Point","coordinates":[-76.9608243,38.9380862]},"properties":{"man_made":"surveillance","check_date":"2025-03-05","camera:type":"fixed","camera:mount":"pole","surveillance":"outdoor","camera:direction":"20","surveillance:type":"camera","surveillance:zone":"building","id":"node/8481217465","_lat":"38.93808176322534","_lon":"-76.96081638336182","timestamp":"2025-03-06T01:58:55Z","version":2,"changeset":163267102,"user":"0x0000","uid":651903}},{"type":"Feature","geometry":{"type":"Point","coordinates":[-76.9654203,38.9252255]},"properties":{"note":"Both speed and red-light; super sensitive","man_made":"surveillance","camera:type":"fixed","camera:mount":"pole","surveillance":"red_light","camera:direction":"120","surveillance:type":"camera","surveillance:zone":"traffic","id":"node/9072330942","_lat":"38.92522904714053","_lon":"-76.96542978286743","timestamp":"2021-09-08T01:12:26Z","version":1,"changeset":110883801,"user":"0x0000","uid":651903}},{"type":"Feature","geometry":{"type":"Point","coordinates":[-76.9755939,38.9256396]},"properties":{"man_made":"surveillance","direction":"130","camera:type":"fixed","manufacturer":"Flock Safety","surveillance:type":"ALPR","manufacturer:wikidata":"Q108485435","id":"node/13144477387","_lat":"38.92564637969829","_lon":"-76.9756007194519","timestamp":"2025-09-15T13:06:58Z","version":1,"changeset":171965175,"user":"hello_moto","uid":22566125}},{"type":"Feature","geometry":{"type":"Point","coordinates":[-76.9769403,38.9256317]},"properties":{"man_made":"surveillance","direction":"245","camera:type":"fixed","manufacturer":"Flock Safety","surveillance:type":"ALPR","manufacturer:wikidata":"Q108485435","id":"node/13144504208","_lat":"38.9256296864431","_lon":"-76.97693109512329","timestamp":"2025-09-15T13:09:05Z","version":1,"changeset":171965272,"user":"hello_moto","uid":22566125}},{"type":"Feature","geometry":{"type":"Point","coordinates":[-77.0325593,38.928821]},"properties":{"man_made":"surveillance","check_date":"2025-07-12","camera:type":"dome","camera:mount":"pole","surveillance":"outdoor","surveillance:type":"camera","surveillance:zone":"street","id":"node/6416257421","_lat":"38.92881802690641","_lon":"-77.0325493812561","timestamp":"2025-07-12T21:35:32Z","version":2,"changeset":168852894,"user":"John Kastner","uid":8486808}},{"type":"Feature","geometry":{"type":"Point","coordinates":[-77.0365541,38.9361548]},"properties":{"man_made":"surveillance","direction":"140","camera:type":"fixed","manufacturer":"Flock Safety","surveillance:type":"ALPR","manufacturer:wikidata":"Q108485435","id":"node/13158951821","_lat":"38.9361623496803","_lon":"-77.03656196594238","timestamp":"2025-09-21T02:00:29Z","version":1,"changeset":172227515,"user":"hello_moto","uid":22566125}},{"type":"Feature","geometry":{"type":"Point","coordinates":[-77.0363576,38.9373607]},"properties":{"man_made":"surveillance","direction":"345","camera:type":"fixed","manufacturer":"Flock Safety","surveillance:type":"ALPR","manufacturer:wikidata":"Q108485435","id":"node/13143737413","_lat":"38.93736407554613","_lon":"-77.03634738922119","timestamp":"2025-09-15T04:10:34Z","version":2,"changeset":171944155,"user":"hello_moto","uid":22566125}},{"type":"Feature","geometry":{"type":"Point","coordinates":[-77.0048529,38.9282606]},"properties":{"man_made":"surveillance","direction":"13","camera:type":"fixed","camera:mount":"pole","manufacturer":"Motorola Solutions","surveillance":"public","surveillance:type":"ALPR","surveillance:zone":"traffic","manufacturer:wikidata":"Q634815","id":"node/13667426501","_lat":"38.928267172040734","_lon":"-77.0048475265503","timestamp":"2026-03-21T18:45:18Z","version":2,"changeset":180221326,"user":"FiloDo4","uid":23924244}},{"type":"Feature","geometry":{"type":"Point","coordinates":[-77.005016,38.9282886]},"properties":{"man_made":"surveillance","direction":"185","camera:type":"fixed","manufacturer":"Motorola Solutions","surveillance":"public","surveillance:type":"ALPR","surveillance:zone":"traffic","manufacturer:wikidata":"Q634815","id":"node/13667430801","_lat":"38.92828386467525","_lon":"-77.00501918792725","timestamp":"2026-03-21T18:46:00Z","version":2,"changeset":180221354,"user":"FiloDo4","uid":23924244}},{"type":"Feature","geometry":{"type":"Point","coordinates":[-77.0028824,38.9570958]},"properties":{"man_made":"surveillance","direction":"208","camera:type":"fixed","manufacturer":"Flock Safety","surveillance":"public","surveillance:type":"ALPR","surveillance:zone":"traffic","manufacturer:wikidata":"Q108485435","id":"node/13618313601","_lat":"38.95708949699474","_lon":"-77.00287342071533","timestamp":"2026-03-04T17:15:38Z","version":1,"changeset":179359924,"user":"UTIL221","uid":23866722}},{"type":"Feature","geometry":{"type":"Point","coordinates":[-77.0351724,38.939936]},"properties":{"man_made":"surveillance","direction":"153","camera:type":"fixed","manufacturer":"Flock Safety","surveillance":"public","surveillance:type":"ALPR","surveillance:zone":"traffic","manufacturer:wikidata":"Q108485435","id":"node/13597112080","_lat":"38.93993436528612","_lon":"-77.03516721725464","timestamp":"2026-03-26T21:09:36Z","version":3,"changeset":180475790,"user":"Deflockdc","uid":23981943}},{"type":"Feature","geometry":{"type":"Point","coordinates":[-77.035139,38.9398893]},"properties":{"man_made":"surveillance","direction":"134","camera:type":"fixed","manufacturer":"Flock Safety","surveillance":"public","surveillance:type":"ALPR","surveillance:zone":"traffic","manufacturer:wikidata":"Q108485435","id":"node/13764984801","_lat":"38.939884295596585","_lon":"-77.03514575958252","timestamp":"2026-04-26T21:00:44Z","version":1,"changeset":181864621,"user":"Natty","uid":226869}},{"type":"Feature","geometry":{"type":"Point","coordinates":[-77.0621914,38.9421294]},"properties":{"man_made":"surveillance","direction":"315","camera:type":"fixed","manufacturer":"Flock Safety","surveillance:type":"ALPR","manufacturer:wikidata":"Q108485435","id":"node/13143016730","_lat":"38.94213739662396","_lon":"-77.06218242645264","timestamp":"2025-09-14T18:23:16Z","version":1,"changeset":171931546,"user":"hello_moto","uid":22566125}},{"type":"Feature","geometry":{"type":"Point","coordinates":[-77.0614238,38.9402675]},"properties":{"man_made":"surveillance","direction":"135","camera:type":"fixed","manufacturer":"Flock Safety","surveillance:type":"ALPR","manufacturer:wikidata":"Q108485435","id":"node/13146150310","_lat":"38.940268162312975","_lon":"-77.06143140792847","timestamp":"2025-09-16T00:08:26Z","version":1,"changeset":171989552,"user":"hello_moto","uid":22566125}},{"type":"Feature","geometry":{"type":"Point","coordinates":[-76.9990758,38.9564491]},"properties":{"man_made":"surveillance","operator":"DC Metropolitan Police Department","direction":"45;225","camera:type":"fixed","manufacturer":"Flock Safety","operator:wikidata":"Q1350854","surveillance:type":"ALPR","manufacturer:wikidata":"Q108485435","id":"node/12875971813","_lat":"38.95645543178543","_lon":"-76.99907541275024","timestamp":"2025-05-30T19:36:04Z","version":1,"changeset":166987894,"user":"dewbertdc","uid":21376642}},{"type":"Feature","geometry":{"type":"Point","coordinates":[-77.0926633,38.9684331]},"properties":{"man_made":"surveillance","camera:type":"dome","camera:mount":"ceiling","surveillance":"outdoor","camera:direction":"110","surveillance:type":"camera","surveillance:zone":"entrance","id":"node/12320984001","_lat":"38.968434967891085","_lon":"-77.09267377853394","timestamp":"2024-11-07T16:49:13Z","version":1,"changeset":158863970,"user":"ericfromson","uid":22056074}},{"type":"Feature","geometry":{"type":"Point","coordinates":[-77.0337254,38.9929929]},"properties":{"man_made":"surveillance","direction":"70","camera:type":"fixed","manufacturer":"Axon Enterprise","surveillance":"public","surveillance:type":"ALPR","surveillance:zone":"traffic","manufacturer:wikidata":"Q690604","id":"node/13657064760","_lat":"38.99298835176904","_lon":"-77.03372955322266","timestamp":"2026-03-17T22:04:32Z","version":1,"changeset":180030103,"user":"AdmiralArmpit","uid":22971631}},{"type":"Feature","geometry":{"type":"Point","coordinates":[-77.0362818,38.9932058]},"properties":{"man_made":"surveillance","direction":"5","camera:type":"fixed","manufacturer":"Axon Enterprise","surveillance":"public","surveillance:type":"ALPR","surveillance:zone":"traffic","manufacturer:wikidata":"Q690604","id":"node/13639266889","_lat":"38.99320515758032","_lon":"-77.03628301620483","timestamp":"2026-03-11T18:44:00Z","version":1,"changeset":179717785,"user":"AdmiralArmpit","uid":22971631}},{"type":"Feature","geometry":{"type":"Point","coordinates":[-77.0289521,38.9723458]},"properties":{"man_made":"surveillance","direction":"0","camera:type":"fixed","manufacturer":"Flock Safety","surveillance":"public","surveillance:type":"ALPR","surveillance:zone":"traffic","manufacturer:wikidata":"Q108485435","id":"node/13308083302","_lat":"38.97233872445722","_lon":"-77.02894449234009","timestamp":"2025-11-16T12:25:15Z","version":1,"changeset":174724343,"user":"Natty","uid":226869}},{"type":"Feature","geometry":{"type":"Point","coordinates":[-77.0261862,38.9865846]},"properties":{"man_made":"surveillance","operator":"Montgomery College Public Safety","direction":"35","camera:type":"fixed","camera:mount":"pole","manufacturer":"Flock Safety","surveillance":"public","surveillance:type":"ALPR","surveillance:zone":"traffic","manufacturer:wikidata":"Q108485435","id":"node/12657360454","_lat":"38.986583942093915","_lon":"-77.02617645263672","timestamp":"2025-04-04T19:58:20Z","version":3,"changeset":164526605,"user":"os-emmer","uid":12616326}},{"type":"Feature","geometry":{"type":"Point","coordinates":[-76.9753375,38.9872291]},"properties":{"brand":"Flock Safety","man_made":"surveillance","operator":"Marylander Condominiums","direction":"70","camera:type":"fixed","camera:mount":"pole","surveillance":"private","brand:wikidata":"Q108485435","surveillance:type":"ALPR","surveillance:zone":"residential","id":"node/12977280948","_lat":"38.987234416389924","_lon":"-76.97534322738647","timestamp":"2025-07-04T11:51:25Z","version":1,"changeset":168482501,"user":"Charter7124","uid":22207121}},{"type":"Feature","geometry":{"type":"Point","coordinates":[-76.975776,38.9864272]},"properties":{"brand":"Flock Safety","man_made":"surveillance","operator":"Marylander Condominiums","direction":"95","camera:type":"fixed","camera:mount":"pole","surveillance":"private","brand:wikidata":"Q108485435","surveillance:type":"ALPR","surveillance:zone":"residential","id":"node/12977311442","_lat":"38.98643383179214","_lon":"-76.97577238082886","timestamp":"2025-07-04T11:50:07Z","version":1,"changeset":168482452,"user":"Charter7124","uid":22207121}},{"type":"Feature","geometry":{"type":"Point","coordinates":[-76.9724072,38.9926402]},"properties":{"man_made":"surveillance","emergency":"phone","surveillance:type":"camera","id":"node/8964392492","_lat":"38.99263812559394","_lon":"-76.97240352630615","timestamp":"2021-07-30T22:51:26Z","version":1,"changeset":108912740,"user":"John Kastner","uid":8486808}},{"type":"Feature","geometry":{"type":"Point","coordinates":[-76.972605,38.9930097]},"properties":{"man_made":"surveillance","emergency":"phone","surveillance:type":"camera","id":"node/8964392487","_lat":"38.99300502916273","_lon":"-76.97259664535522","timestamp":"2021-07-30T22:51:26Z","version":1,"changeset":108912740,"user":"John Kastner","uid":8486808}},{"type":"Feature","geometry":{"type":"Point","coordinates":[-76.9734314,38.9929924]},"properties":{"man_made":"surveillance","emergency":"phone","surveillance:type":"camera","id":"node/8964392496","_lat":"38.99298835176904","_lon":"-76.97343349456787","timestamp":"2021-07-30T22:51:26Z","version":1,"changeset":108912740,"user":"John Kastner","uid":8486808}},{"type":"Feature","geometry":{"type":"Point","coordinates":[-76.9555487,38.9842418]},"properties":{"man_made":"surveillance","direction":"150","camera:type":"fixed","manufacturer":"Flock Safety","surveillance":"public","surveillance:type":"ALPR","surveillance:zone":"traffic","manufacturer:wikidata":"Q108485435","id":"node/13639613271","_lat":"38.984248856918896","_lon":"-76.95555925369263","timestamp":"2026-03-11T22:10:06Z","version":1,"changeset":179724298,"user":"penguin1737","uid":8181298}},{"type":"Feature","geometry":{"type":"Point","coordinates":[-76.9549496,38.9832384]},"properties":{"man_made":"surveillance","direction":"313","camera:type":"fixed","manufacturer":"Flock Safety","surveillance":"public","surveillance:type":"ALPR","surveillance:zone":"traffic","manufacturer:wikidata":"Q108485435","id":"node/13614887401","_lat":"38.98323140285834","_lon":"-76.95495843887329","timestamp":"2026-03-03T15:57:19Z","version":1,"changeset":179309288,"user":"UTIL221","uid":23866722}},{"type":"Feature","geometry":{"type":"Point","coordinates":[-76.962401,38.9667323]},"properties":{"man_made":"surveillance","operator":"The Home Depot","direction":"170","camera:type":"fixed","manufacturer":"Flock Safety","operator:wikidata":"Q864407","surveillance:type":"ALPR","manufacturer:wikidata":"Q108485435","id":"node/13143781375","_lat":"38.96673326308073","_lon":"-76.96240425109863","timestamp":"2025-09-15T12:42:16Z","version":2,"changeset":171964123,"user":"hello_moto","uid":22566125}},{"type":"Feature","geometry":{"type":"Point","coordinates":[-76.9642561,38.9664789]},"properties":{"man_made":"surveillance","operator":"The Home Depot","direction":"0-360;0-360","camera:type":"dome","electricity":"solar","camera:model":"Condor","camera:mount":"pole","manufacturer":"Flock Safety","surveillance":"public","operator:type":"private","operator:wikidata":"Q864407","surveillance:type":"camera","surveillance:zone":"parking","manufacturer:wikidata":"Q108485435","id":"node/13611844841","_lat":"38.966483008925394","_lon":"-76.96424961090088","timestamp":"2026-04-03T02:09:48Z","version":2,"changeset":180792071,"user":"SnoozeMaster3000","uid":23905397}},{"type":"Feature","geometry":{"type":"Point","coordinates":[-76.9536926,38.9653101]},"properties":{"man_made":"surveillance","direction":"330","camera:type":"fixed","manufacturer":"Flock Safety","surveillance:type":"ALPR","manufacturer:wikidata":"Q108485435","id":"node/13143766243","_lat":"38.96531514451104","_lon":"-76.95369243621826","timestamp":"2025-09-15T04:19:26Z","version":1,"changeset":171944333,"user":"hello_moto","uid":22566125}},{"type":"Feature","geometry":{"type":"Point","coordinates":[-76.9512061,38.9666414]},"properties":{"man_made":"surveillance","direction":"250","camera:type":"fixed","manufacturer":"Flock Safety","surveillance":"public","surveillance:type":"ALPR","surveillance:zone":"traffic","manufacturer:wikidata":"Q108485435","id":"node/13639613270","_lat":"38.9666331615247","_lon":"-76.95120334625244","timestamp":"2026-03-11T22:10:06Z","version":1,"changeset":179724298,"user":"penguin1737","uid":8181298}},{"type":"Feature","geometry":{"type":"Point","coordinates":[-77.1103542,38.9341247]},"properties":{"highway":"speed_camera","direction":"330","id":"node/12578332671","_lat":"38.934126045475125","_lon":"-77.11035490036011","timestamp":"2026-04-24T01:41:38Z","version":2,"changeset":181742718,"user":"KB-01","uid":9509339}},{"type":"Feature","geometry":{"type":"Point","coordinates":[-77.0995552,38.9304142]},"properties":{"highway":"speed_camera","direction":"230","id":"node/12578341743","_lat":"38.93042048946532","_lon":"-77.09956169128418","timestamp":"2025-02-11T07:18:20Z","version":1,"changeset":162378527,"user":"nikos2wheels","uid":22437239}},{"type":"Feature","geometry":{"type":"Point","coordinates":[-77.103599,38.9357403]},"properties":{"highway":"speed_camera","direction":"270","id":"node/12578341744","_lat":"38.935745078991516","_lon":"-77.10359573364258","timestamp":"2026-04-24T01:41:38Z","version":2,"changeset":181742718,"user":"KB-01","uid":9509339}},{"type":"Feature","geometry":{"type":"Point","coordinates":[-77.0774739,38.9442219]},"properties":{"highway":"speed_camera","direction":"330","id":"node/12580485632","_lat":"38.94422353744045","_lon":"-77.07748174667358","timestamp":"2025-02-11T23:53:43Z","version":1,"changeset":162410777,"user":"nikos2wheels","uid":22437239}},{"type":"Feature","geometry":{"type":"Point","coordinates":[-77.0801867,38.949663]},"properties":{"highway":"speed_camera","direction":"335","enforcement":"red_light_camera","id":"node/12543192693","_lat":"38.949663903885266","_lon":"-77.0801854133606","timestamp":"2025-02-11T23:53:43Z","version":2,"changeset":162410777,"user":"nikos2wheels","uid":22437239}},{"type":"Feature","geometry":{"type":"Point","coordinates":[-77.0916163,38.9420845]},"properties":{"highway":"speed_camera","direction":"315","id":"node/12578332673","_lat":"38.94208732849012","_lon":"-77.0916223526001","timestamp":"2026-04-24T01:41:38Z","version":2,"changeset":181742718,"user":"KB-01","uid":9509339}},{"type":"Feature","geometry":{"type":"Point","coordinates":[-77.1037188,38.9448913]},"properties":{"highway":"speed_camera","direction":"20","id":"node/12578332672","_lat":"38.944891089537464","_lon":"-77.1037244796753","timestamp":"2025-02-11T07:21:53Z","version":1,"changeset":162378606,"user":"nikos2wheels","uid":22437239}},{"type":"Feature","geometry":{"type":"Point","coordinates":[-77.1122852,38.9594908]},"properties":{"highway":"speed_camera","maxspeed":"30 mph","direction":"280","id":"node/12067295280","_lat":"38.959492218934","_lon":"-77.11228609085083","timestamp":"2024-07-22T03:13:31Z","version":1,"changeset":154242628,"user":"Mark09","uid":3092760}},{"type":"Feature","geometry":{"type":"Point","coordinates":[-77.0831654,38.9610992]},"properties":{"highway":"speed_camera","direction":"90","enforcement":"traffic_signals","id":"node/12580492006","_lat":"38.96109398829779","_lon":"-77.08316802978516","timestamp":"2025-02-11T23:56:32Z","version":1,"changeset":162410822,"user":"nikos2wheels","uid":22437239}},{"type":"Feature","geometry":{"type":"Point","coordinates":[-77.0863505,38.9547423]},"properties":{"highway":"speed_camera","direction":"90","enforcement":"traffic_signals","id":"node/12580433290","_lat":"38.95473675281974","_lon":"-77.08634376525879","timestamp":"2025-02-11T23:55:10Z","version":1,"changeset":162410805,"user":"nikos2wheels","uid":22437239}},{"type":"Feature","geometry":{"type":"Point","coordinates":[-76.9545948,38.9398316]},"properties":{"highway":"speed_camera","maxspeed":"30 mph","direction":"230","id":"node/9912878862","_lat":"38.939834225871635","_lon":"-76.95459365844727","timestamp":"2022-07-26T16:53:57Z","version":1,"changeset":124105017,"user":"0x0000","uid":651903}},{"type":"Feature","geometry":{"type":"Point","coordinates":[-76.9545246,38.9397521]},"properties":{"highway":"speed_camera","maxspeed":"30 mph","direction":"50","id":"node/9912878863","_lat":"38.93975077625154","_lon":"-76.95452928543091","timestamp":"2022-07-26T16:53:57Z","version":1,"changeset":124105017,"user":"0x0000","uid":651903}},{"type":"Feature","geometry":{"type":"Point","coordinates":[-76.9501268,38.9429513]},"properties":{"highway":"speed_camera","maxspeed":"30 mph","direction":"20","id":"node/12518713665","_lat":"38.942955171139005","_lon":"-76.95013046264648","timestamp":"2026-04-25T17:36:23Z","version":3,"changeset":181816831,"user":"KB-01","uid":9509339}},{"type":"Feature","geometry":{"type":"Point","coordinates":[-76.95123,38.9423074]},"properties":{"highway":"speed_camera","maxspeed":"30 mph","direction":"210","id":"node/8734377303","_lat":"38.9423042901482","_lon":"-76.95122480392456","timestamp":"2022-05-07T13:40:32Z","version":2,"changeset":120669215,"user":"KB-01","uid":9509339}},{"type":"Feature","geometry":{"type":"Point","coordinates":[-76.9522183,38.9368181]},"properties":{"highway":"speed_camera","maxspeed":"25 mph","direction":"170;320","id":"node/12512968466","_lat":"38.93681328705219","_lon":"-76.95221185684204","timestamp":"2026-04-25T18:58:56Z","version":4,"changeset":181819665,"user":"KB-01","uid":9509339}},{"type":"Feature","geometry":{"type":"Point","coordinates":[-77.0730325,38.929483]},"properties":{"highway":"speed_camera","maxspeed":"25 mph","direction":"10","id":"node/12542850580","_lat":"38.92948572403881","_lon":"-77.07304000854492","timestamp":"2025-03-11T13:09:35Z","version":2,"changeset":163484471,"user":"willkmis","uid":11523236}},{"type":"Feature","geometry":{"type":"Point","coordinates":[-77.0363378,38.9350504]},"properties":{"highway":"speed_camera","direction":"355","id":"node/12543190938","_lat":"38.93504405870718","_lon":"-77.03634738922119","timestamp":"2025-01-30T06:57:06Z","version":1,"changeset":161924996,"user":"nikos2wheels","uid":22437239}},{"type":"Feature","geometry":{"type":"Point","coordinates":[-77.0236808,38.9320924]},"properties":{"highway":"speed_camera","id":"node/12543182439","_lat":"38.93208968280135","_lon":"-77.0236873626709","timestamp":"2025-01-30T07:24:14Z","version":1,"changeset":161925680,"user":"nikos2wheels","uid":22437239}},{"type":"Feature","geometry":{"type":"Point","coordinates":[-77.027877,38.9302286]},"properties":{"highway":"speed_camera","id":"node/3139741799","_lat":"38.930236875800205","_lon":"-77.02787160873413","timestamp":"2022-05-26T01:10:52Z","version":2,"changeset":121497426,"user":"KB-01","uid":9509339}},{"type":"Feature","geometry":{"type":"Point","coordinates":[-77.0185564,38.9295388]},"properties":{"highway":"speed_camera","id":"node/12543113754","_lat":"38.92953580107039","_lon":"-77.01855897903442","timestamp":"2026-04-15T03:13:51Z","version":3,"changeset":181347508,"user":"snake21","uid":2591427}},{"type":"Feature","geometry":{"type":"Point","coordinates":[-77.0121943,38.9263177]},"properties":{"highway":"speed_camera","id":"node/12543217932","_lat":"38.92631410668423","_lon":"-77.01218605041504","timestamp":"2025-01-30T07:27:28Z","version":1,"changeset":161925762,"user":"nikos2wheels","uid":22437239}},{"type":"Feature","geometry":{"type":"Point","coordinates":[-77.009026,38.9526299]},"properties":{"highway":"speed_camera","id":"node/12543207440","_lat":"38.95263423449029","_lon":"-77.00903177261353","timestamp":"2025-10-25T19:03:40Z","version":2,"changeset":173768978,"user":"KB-01","uid":9509339}},{"type":"Feature","geometry":{"type":"Point","coordinates":[-77.0090078,38.9545254]},"properties":{"highway":"speed_camera","id":"node/12543175196","_lat":"38.95451982921119","_lon":"-77.0090103149414","timestamp":"2025-10-25T18:03:44Z","version":2,"changeset":173767137,"user":"KB-01","uid":9509339}},{"type":"Feature","geometry":{"type":"Point","coordinates":[-77.0132127,38.959171]},"properties":{"highway":"speed_camera","maxspeed":"25 mph","id":"node/13514570806","_lat":"38.959175197788284","_lon":"-77.01321601867676","timestamp":"2026-01-31T15:40:27Z","version":1,"changeset":177930825,"user":"whammo","uid":1962542}},{"type":"Feature","geometry":{"type":"Point","coordinates":[-77.0280824,38.9612302]},"properties":{"highway":"speed_camera","id":"node/12543210404","_lat":"38.96122746744362","_lon":"-77.02808618545532","timestamp":"2025-01-30T07:15:29Z","version":1,"changeset":161925461,"user":"nikos2wheels","uid":22437239}},{"type":"Feature","geometry":{"type":"Point","coordinates":[-77.0597551,38.9609881]},"properties":{"highway":"speed_camera","direction":"90","id":"node/12578389595","_lat":"38.96099387877342","_lon":"-77.05975770950317","timestamp":"2025-02-11T07:59:16Z","version":1,"changeset":162379631,"user":"nikos2wheels","uid":22437239}},{"type":"Feature","geometry":{"type":"Point","coordinates":[-77.0363552,38.9526699]},"properties":{"highway":"speed_camera","id":"node/12543211842","_lat":"38.95266760828426","_lon":"-77.03634738922119","timestamp":"2025-01-30T07:14:08Z","version":1,"changeset":161925431,"user":"nikos2wheels","uid":22437239}},{"type":"Feature","geometry":{"type":"Point","coordinates":[-77.0731491,38.9607402]},"properties":{"ref":"381","source":"local knowledge","highway":"speed_camera","website":"https://ddot.dc.gov/sites/default/files/dc/sites/ddot/publication/attachments/ATE%20Active%20Locations%20as%20of%20September%202023.pdf","maxspeed":"25 mph","direction":"310","id":"node/11216880705","_lat":"38.960743604343605","_lon":"-77.07314729690552","timestamp":"2023-10-11T14:15:59Z","version":2,"changeset":142439109,"user":"KB-01","uid":9509339}},{"type":"Feature","geometry":{"type":"Point","coordinates":[-77.0714461,38.9547062]},"properties":{"highway":"speed_camera","direction":"40","enforcement":"red_light_camera","id":"node/12578393033","_lat":"38.954703380000126","_lon":"-77.0714521408081","timestamp":"2025-02-11T07:58:24Z","version":1,"changeset":162379613,"user":"nikos2wheels","uid":22437239}},{"type":"Feature","geometry":{"type":"Point","coordinates":[-77.0715317,38.9548317]},"properties":{"highway":"speed_camera","direction":"210","id":"node/12543201738","_lat":"38.95483687118437","_lon":"-77.07153797149658","timestamp":"2025-01-30T07:07:37Z","version":1,"changeset":161925259,"user":"nikos2wheels","uid":22437239}},{"type":"Feature","geometry":{"type":"Point","coordinates":[-77.0705334,38.9561409]},"properties":{"highway":"speed_camera","direction":"150","enforcement":"red_light_camera","id":"node/12578393032","_lat":"38.95613839705325","_lon":"-77.07052946090698","timestamp":"2025-02-11T07:58:24Z","version":1,"changeset":162379613,"user":"nikos2wheels","uid":22437239}},{"type":"Feature","geometry":{"type":"Point","coordinates":[-77.0688917,38.9534087]},"properties":{"highway":"speed_camera","maxspeed":"25 mph","direction":"120","check_date":"2023-09-23","id":"node/11212939653","_lat":"38.95340182777619","_lon":"-77.06889867782593","timestamp":"2026-04-23T20:41:49Z","version":3,"changeset":181737267,"user":"KB-01","uid":9509339}},{"type":"Feature","geometry":{"type":"Point","coordinates":[-77.0669899,38.9600591]},"properties":{"highway":"speed_camera","direction":"225","id":"node/12578393034","_lat":"38.96005951639157","_lon":"-77.06698894500732","timestamp":"2026-04-23T20:41:49Z","version":2,"changeset":181737267,"user":"KB-01","uid":9509339}},{"type":"Feature","geometry":{"type":"Point","coordinates":[-77.0733835,38.9610399]},"properties":{"highway":"speed_camera","direction":"330","enforcement":"red_light_camera","id":"node/12543182328","_lat":"38.96104393355327","_lon":"-77.07338333129883","timestamp":"2025-02-11T07:55:08Z","version":2,"changeset":162379504,"user":"nikos2wheels","uid":22437239}},{"type":"Feature","geometry":{"type":"Point","coordinates":[-77.0753241,38.9646913]},"properties":{"highway":"speed_camera","direction":"335","id":"node/12578383384","_lat":"38.96469783697131","_lon":"-77.07531452178955","timestamp":"2025-02-11T07:55:08Z","version":1,"changeset":162379504,"user":"nikos2wheels","uid":22437239}},{"type":"Feature","geometry":{"type":"Point","coordinates":[-77.0752117,38.9641343]},"properties":{"highway":"speed_camera","direction":"155","id":"node/12578383385","_lat":"38.96413057665171","_lon":"-77.07520723342896","timestamp":"2025-02-11T07:55:08Z","version":1,"changeset":162379504,"user":"nikos2wheels","uid":22437239}},{"type":"Feature","geometry":{"type":"Point","coordinates":[-77.0770468,38.9700037]},"properties":{"highway":"speed_camera","direction":"340","id":"node/12067253046","_lat":"38.970003169460824","_lon":"-77.0770525932312","timestamp":"2024-07-22T03:27:43Z","version":1,"changeset":154242816,"user":"Mark09","uid":3092760}},{"type":"Feature","geometry":{"type":"Point","coordinates":[-77.0772738,38.9719756]},"properties":{"highway":"speed_camera","direction":"170","id":"node/12067305537","_lat":"38.97197171377243","_lon":"-77.07726716995239","timestamp":"2024-07-22T03:21:23Z","version":1,"changeset":154242729,"user":"Mark09","uid":3092760}},{"type":"Feature","geometry":{"type":"Point","coordinates":[-77.0770341,38.9721923]},"properties":{"highway":"speed_camera","direction":"340","id":"node/12067253043","_lat":"38.97218858395243","_lon":"-77.07703113555908","timestamp":"2024-07-22T03:24:15Z","version":1,"changeset":154242770,"user":"Mark09","uid":3092760}},{"type":"Feature","geometry":{"type":"Point","coordinates":[-77.0772663,38.973438]},"properties":{"highway":"speed_camera","direction":"170","id":"node/12067304582","_lat":"38.97343974510062","_lon":"-77.07726716995239","timestamp":"2024-07-22T03:18:05Z","version":1,"changeset":154242683,"user":"Mark09","uid":3092760}},{"type":"Feature","geometry":{"type":"Point","coordinates":[-77.0821703,38.9768936]},"properties":{"highway":"speed_camera","direction":"95","id":"node/12578386400","_lat":"38.97689283518031","_lon":"-77.08218097686768","timestamp":"2025-02-11T07:50:31Z","version":1,"changeset":162379381,"user":"nikos2wheels","uid":22437239}},{"type":"Feature","geometry":{"type":"Point","coordinates":[-77.0898856,38.974254]},"properties":{"highway":"speed_camera","direction":"180","id":"node/12578368968","_lat":"38.97425715844645","_lon":"-77.08988428115845","timestamp":"2025-02-11T07:47:42Z","version":1,"changeset":162379301,"user":"nikos2wheels","uid":22437239}},{"type":"Feature","geometry":{"type":"Point","coordinates":[-77.0893797,38.9705113]},"properties":{"highway":"speed_camera","direction":"180","id":"node/12578368967","_lat":"38.97050365201494","_lon":"-77.08936929702759","timestamp":"2025-02-11T07:47:42Z","version":1,"changeset":162379301,"user":"nikos2wheels","uid":22437239}},{"type":"Feature","geometry":{"type":"Point","coordinates":[-77.1224619,38.973482]},"properties":{"highway":"speed_camera","direction":"140","enforcement":"red_light_camera","id":"node/12578358414","_lat":"38.97348979108679","_lon":"-77.1224570274353","timestamp":"2025-02-11T07:41:25Z","version":1,"changeset":162379119,"user":"nikos2wheels","uid":22437239}},{"type":"Feature","geometry":{"type":"Point","coordinates":[-77.0938191,38.9836959]},"properties":{"highway":"speed_camera","direction":"335","enforcement":"red_light_camera","id":"node/12578390145","_lat":"38.983698432767284","_lon":"-77.09381103515625","timestamp":"2025-02-11T08:02:22Z","version":1,"changeset":162379703,"user":"nikos2wheels","uid":22437239}},{"type":"Feature","geometry":{"type":"Point","coordinates":[-77.0952088,38.9884483]},"properties":{"highway":"speed_camera","direction":"160","enforcement":"red_light_camera","id":"node/12578392730","_lat":"38.988451954776195","_lon":"-77.095205783844","timestamp":"2025-02-11T08:04:20Z","version":1,"changeset":162379736,"user":"nikos2wheels","uid":22437239}},{"type":"Feature","geometry":{"type":"Point","coordinates":[-77.1183625,38.9923868]},"properties":{"highway":"speed_camera","id":"node/11112359508","_lat":"38.992387962979166","_lon":"-77.11835861206055","timestamp":"2023-08-13T16:42:42Z","version":1,"changeset":139833682,"user":"heretofore","uid":1329494}},{"type":"Feature","geometry":{"type":"Point","coordinates":[-77.096326,38.9948943]},"properties":{"highway":"speed_camera","direction":"350","id":"node/12578392731","_lat":"38.99488954933514","_lon":"-77.09632158279419","timestamp":"2025-02-11T08:04:20Z","version":1,"changeset":162379736,"user":"nikos2wheels","uid":22437239}},{"type":"Feature","geometry":{"type":"Point","coordinates":[-77.0903348,38.9973692]},"properties":{"highway":"speed_camera","id":"node/12054165000","_lat":"38.997374370904396","_lon":"-77.09033489227295","timestamp":"2024-07-15T02:35:01Z","version":1,"changeset":153952193,"user":"Mark09","uid":3092760}},{"type":"Feature","geometry":{"type":"Point","coordinates":[-77.0888963,38.9854326]},"properties":{"highway":"speed_camera","direction":"235","id":"node/4063880152","_lat":"38.98543308831228","_lon":"-77.08889722824097","timestamp":"2024-07-22T03:44:54Z","version":4,"changeset":154243048,"user":"Mark09","uid":3092760}},{"type":"Feature","geometry":{"type":"Point","coordinates":[-77.0770291,38.9908968]},"properties":{"highway":"speed_camera","direction":"340","id":"node/11112331703","_lat":"38.99090364661038","_lon":"-77.07703113555908","timestamp":"2024-07-22T03:49:13Z","version":2,"changeset":154243092,"user":"Mark09","uid":3092760}},{"type":"Feature","geometry":{"type":"Point","coordinates":[-77.0713482,38.971986]},"properties":{"highway":"speed_camera","direction":"45","id":"node/12578383383","_lat":"38.97198839611755","_lon":"-77.07134485244751","timestamp":"2025-02-11T07:55:08Z","version":1,"changeset":162379504,"user":"nikos2wheels","uid":22437239}},{"type":"Feature","geometry":{"type":"Point","coordinates":[-77.0103423,38.9814838]},"properties":{"name":"Takoma Park Police","amenity":"police","wikidata":"Q7678473","id":"node/3483241133","_lat":"38.9814966933659","_lon":"-77.01038360595703","timestamp":"2022-11-12T14:09:05Z","version":2,"changeset":128814290,"user":"John Kastner","uid":8486808}},{"type":"Feature","geometry":{"type":"Point","coordinates":[-76.9929055,38.9431681]},"properties":{"ele":"46","name":"D.C. Police & Fire Clinic","source":"USGS Geonames","amenity":"police","website":"https://www.pfcassociates.org/","addr:state":"DC","wheelchair":"limited","gnis:feature_id":"2335127","id":"node/367142225","_lat":"38.94318881926796","_lon":"-76.99287414550781","timestamp":"2024-08-12T19:22:26Z","version":5,"changeset":155164666,"user":"Mateusz Konieczny - bot account","uid":3199858}},{"type":"Feature","geometry":{"type":"Point","coordinates":[-76.9521625,38.9379822]},"properties":{"ele":"15","name":"Cottage City Police Station","source":"USGS Geonames","amenity":"police","addr:state":"MD","gnis:feature_id":"2457505","id":"node/367798236","_lat":"38.937981621194524","_lon":"-76.95219039916992","timestamp":"2024-08-13T13:13:00Z","version":3,"changeset":155195145,"user":"Mateusz Konieczny - bot account","uid":3199858}},{"type":"Feature","geometry":{"type":"Point","coordinates":[-76.9618232,38.9357052]},"properties":{"name":"Mount Rainier Police","phone":"+1-301-985-6580","amenity":"police","website":"https://www.mountrainiermd.org/departments/police/contact-us","facebook":"https://www.facebook.com/mountrainierpolicedepartment/","addr:city":"Mount Rainier","addr:state":"MD","check_date":"2024-10-30","addr:street":"Rhode Island Avenue","addr:postcode":"20712","opening_hours":"24/7","gnis:feature_id":"2457357","addr:housenumber":"3249","id":"node/8757006564","_lat":"38.935711697230346","_lon":"-76.9618034362793","timestamp":"2024-10-31T00:55:14Z","version":3,"changeset":158563855,"user":"0x0000","uid":651903}},{"type":"Feature","geometry":{"type":"Point","coordinates":[-77.0748469,38.9348396]},"properties":{"ele":"108","name":"Washington District of Columbia Police Department District 2","source":"USGS Geonames","amenity":"police","addr:state":"DC","gnis:feature_id":"2335138","id":"node/367142210","_lat":"38.9348437659246","_lon":"-77.07484245300293","timestamp":"2024-08-12T19:22:24Z","version":3,"changeset":155164666,"user":"Mateusz Konieczny - bot account","uid":3199858}},{"type":"Feature","geometry":{"type":"Point","coordinates":[-77.0256524,38.9326856]},"properties":{"name":"Fourth District Substation","amenity":"police","operator":"Metropolitan Police Department","check_date":"2026-03-25","operator:short":"MPD","operator:wikidata":"Q1350854","id":"node/2973421682","_lat":"38.932707274379595","_lon":"-77.02566146850586","timestamp":"2026-03-25T12:45:31Z","version":5,"changeset":180406007,"user":"Goofball5388","uid":20628603}},{"type":"Feature","geometry":{"type":"Point","coordinates":[-77.023787,38.9400962]},"properties":{"name":"Metropolitan Police Department Special Liaison Unit","amenity":"police","operator":"Metropolitan Police Department","operator:short":"MPD","operator:wikidata":"Q1350854","id":"node/13706772745","_lat":"38.940117953845345","_lon":"-77.02377319335938","timestamp":"2026-04-04T21:55:56Z","version":1,"changeset":180874622,"user":"willkmis","uid":11523236}},{"type":"Feature","geometry":{"type":"Point","coordinates":[-77.0191143,38.9672547]},"properties":{"ele":"76","name":"Metropolitan Police Boys and Girls Clubs","source":"USGS Geonames","amenity":"police","addr:state":"DC","tiger:reviewed":"yes","gnis:feature_id":"2335123","id":"node/367142227","_lat":"38.96728381911049","_lon":"-77.01913833618164","timestamp":"2024-08-12T19:22:27Z","version":3,"changeset":155164666,"user":"Mateusz Konieczny - bot account","uid":3199858}},{"type":"Feature","geometry":{"type":"Point","coordinates":[-77.0914344,38.9632601]},"properties":{"name":"Montgomery County Police Field Office","amenity":"police","addr:housenumber":"4602","id":"node/1269089018","_lat":"38.963279677655805","_lon":"-77.0914077758789","timestamp":"2011-05-02T01:04:19Z","version":3,"changeset":8027268,"user":"aude","uid":12055}},{"type":"Feature","geometry":{"type":"Point","coordinates":[-77.0775718,38.970594]},"properties":{"ele":"107","name":"Chevy Chase Village Police Department","source":"USGS Geonames","amenity":"police","addr:state":"MD","gnis:feature_id":"2331609","id":"node/367798176","_lat":"38.97062043076872","_lon":"-77.07758903503418","timestamp":"2024-08-13T10:26:07Z","version":3,"changeset":155188159,"user":"Mateusz Konieczny - bot account","uid":3199858}},{"type":"Feature","geometry":{"type":"Polygon","coordinates":[[[-77.0473183,38.9280607],[-77.0473703,38.9281215],[-77.047374,38.9281258],[-77.0475482,38.9280352],[-77.0473844,38.9278433],[-77.0472102,38.9279339],[-77.0472647,38.9279978],[-77.047256,38.9280023],[-77.047283,38.928034],[-77.0473097,38.9280652],[-77.0473183,38.9280607]]]},"properties":{"name":"Zoo Police Station","source":"dcgis","amenity":"police","dataset":"buildings","building":"office","dcgis:lot":"0006","dcgis:gis_id":"22627","dcgis:square":"PAR","building:levels":"1","dcgis:captureyear":"19990331","id":"way/69754409","_lat":"38.92796670382165","_lon":"-77.04741954803467","timestamp":"2019-12-30T00:22:31Z","version":3,"changeset":78992828,"user":"Sparks","uid":80285}},{"type":"Feature","geometry":{"type":"Polygon","coordinates":[[[-77.0273415,38.9633463],[-77.0273415,38.9633565],[-77.0273415,38.9633942],[-77.0274977,38.963394],[-77.0274976,38.963346],[-77.0275796,38.9633459],[-77.0275786,38.9628854],[-77.027261,38.9628858],[-77.027262,38.9633464],[-77.0273415,38.9633463]]]},"properties":{"ele":"92","name":"Washington DC Police Department District 4","source":"USGS Geonames","amenity":"police","building":"yes","operator":"Metropolitan Police Department","addr:state":"DC","wheelchair":"yes","addr:street":"Georgia Avenue Northwest","dcgis:gis_id":"162577","addr:postcode":"20011","operator:short":"MPD","tiger:reviewed":"yes","gnis:feature_id":"2335136","addr:housenumber":"6001","operator:wikidata":"Q1350854","id":"way/295143641","_lat":"38.963146201873315","_lon":"-77.02742099761963","timestamp":"2024-08-12T19:38:19Z","version":5,"changeset":155164666,"user":"Mateusz Konieczny - bot account","uid":3199858}},{"type":"Feature","geometry":{"type":"Polygon","coordinates":[[[-77.039965,38.9598947],[-77.0399986,38.9599672],[-77.0399878,38.9599703],[-77.0400273,38.9600556],[-77.0401231,38.9600285],[-77.0400999,38.9599789],[-77.0401379,38.9599682],[-77.0400872,38.9598589],[-77.0400525,38.9598687],[-77.0400318,38.9598242],[-77.0399465,38.9598483],[-77.039948,38.9598517],[-77.0399169,38.9598605],[-77.0399366,38.9599028],[-77.039965,38.9598947]]]},"properties":{"ele":"47","name":"Rock Creek Park Police Substation","source":"dcgis","amenity":"police","dataset":"buildings","building":"public","operator":"United States Park Police","wikidata":"Q99385625","dcgis:gis_id":"35886","operator:short":"USPP","gnis:feature_id":"531733","dcgis:captureyear":"19990331","operator:wikidata":"Q2005254","id":"way/70076091","_lat":"38.95997609050899","_lon":"-77.04008102416992","timestamp":"2024-08-12T19:35:12Z","version":5,"changeset":155164666,"user":"Mateusz Konieczny - bot account","uid":3199858}},{"type":"Feature","geometry":{"type":"Polygon","coordinates":[[[-77.050717,38.9677264],[-77.0504437,38.9677687],[-77.0503899,38.967777],[-77.050408,38.9678486],[-77.0504158,38.9678793],[-77.050743,38.9678286],[-77.050717,38.9677264]]]},"properties":{"ele":"94","name":"Rock Creek Park Police Stables","source":"USGS Geonames","amenity":"police","dataset":"buildings","building":"stable","addr:state":"DC","dcgis:gis_id":"39456","gnis:feature_id":"531739","dcgis:captureyear":"19990331","id":"way/71010831","_lat":"38.96781768750637","_lon":"-77.05055236816406","timestamp":"2024-08-12T19:35:15Z","version":3,"changeset":155164666,"user":"Mateusz Konieczny - bot account","uid":3199858}},{"type":"Feature","geometry":{"type":"Polygon","coordinates":[[[-77.0980216,38.9914792],[-77.0979441,38.9912076],[-77.0976952,38.9912514],[-77.0977762,38.9915204],[-77.0980216,38.9914792]]]},"properties":{"name":"2nd District Police Station","amenity":"police","building":"civic","operator":"Montgomery County Police","addr:city":"Bethesda","addr:state":"MD","addr:street":"Rugby Avenue","addr:postcode":"20814","building:levels":"4","addr:housenumber":"4823","id":"way/1029251854","_lat":"38.991370625777066","_lon":"-77.09784507751465","timestamp":"2024-06-16T23:58:58Z","version":2,"changeset":152780427,"user":"Tilloo","uid":10615138}},{"type":"Feature","geometry":{"type":"Polygon","coordinates":[[[-76.9804048,38.9274185],[-76.9804107,38.9274882],[-76.9805614,38.9274805],[-76.9805529,38.9273804],[-76.9805711,38.9273795],[-76.9805582,38.9272263],[-76.9803715,38.9272359],[-76.9803727,38.9272503],[-76.9803844,38.9273891],[-76.9804023,38.9273882],[-76.9804028,38.9273949],[-76.9803761,38.9273963],[-76.980378,38.9274199],[-76.9804048,38.9274185]]]},"properties":{"ele":"49","name":"Washington District of Columbia Police Department - Youth Investigations and Family Violence","source":"USGS Geonames","amenity":"police","building":"yes","addr:state":"DC","addr:street":"Rhode Island Avenue Northeast","dcgis:gis_id":"70953","addr:postcode":"20018","gnis:feature_id":"2335141","addr:housenumber":"1700","id":"way/296286182","_lat":"38.92736576381678","_lon":"-76.98047161102295","timestamp":"2024-08-12T19:39:38Z","version":2,"changeset":155164666,"user":"Mateusz Konieczny - bot account","uid":3199858}},{"type":"Feature","geometry":{"type":"LineString","coordinates":[[-77.1127039,38.9388614],[-77.1126266,38.9388537],[-77.1126213,38.9389039],[-77.1126999,38.9389075],[-77.1127039,38.9388614]]},"properties":{"police":"checkpoint","id":"way/1329623914","_lat":"38.93888289437274","_lon":"-77.11265087127686","timestamp":"2024-10-31T13:32:39Z","version":1,"changeset":158581731,"user":"ericfromson","uid":22056074}},{"type":"Feature","geometry":{"type":"Polygon","coordinates":[[[-77.0638306,38.9408729],[-77.063826,38.9408556],[-77.063806,38.9408588],[-77.0638106,38.9408761],[-77.0638306,38.9408729]]]},"properties":{"building":"yes","police":"checkpoint","id":"way/903760803","_lat":"38.940865849999994","_lon":"-77.06381830000001","timestamp":"2021-02-04T11:18:55Z","version":1,"changeset":98701296,"user":"Minh Nguyen","uid":33757}},{"type":"Feature","geometry":{"type":"Polygon","coordinates":[[[-77.0567687,38.9369075],[-77.0567497,38.9369065],[-77.056748,38.9369269],[-77.056767,38.9369278],[-77.0567687,38.9369075]]]},"properties":{"barrier":"toll_booth","building":"yes","police":"checkpoint","id":"way/1333769173","_lat":"38.93691715","_lon":"-77.05675835","timestamp":"2025-01-19T12:42:25Z","version":2,"changeset":161522799,"user":"Mateusz Konieczny - bot account","uid":3199858}},{"type":"Feature","geometry":{"type":"Polygon","coordinates":[[[-77.02394485473633,38.94025147249894],[-77.02394485473633,38.94031823173148],[-77.0236873626709,38.94031823173148],[-77.0236873626709,38.940117953845345],[-77.02342987060547,38.940117953845345],[-77.02342987060547,38.93991767539353],[-77.02385902404785,38.93991767539353],[-77.02385902404785,38.939850915783865],[-77.02420234680176,38.939850915783865],[-77.02420234680176,38.940117953845345],[-77.02385902404785,38.940117953845345],[-77.02385902404785,38.94025147249894],[-77.02394485473633,38.94025147249894]]]},"properties":{"source":"dcgis","amenity":"police","dataset":"buildings","building":"yes","dcgis:lot":"0806","roof:shape":"hipped","addr:street":"Shepherd Street Northwest","dcgis:gis_id":"158176","dcgis:square":"3026","building:levels":"3","addr:housenumber":"801","building:material":"brick","dcgis:captureyear":"20050405","id":"way/70143174","_lat":"38.94008457375767","_lon":"-77.02381610870361"}},{"type":"Feature","geometry":{"type":"Point","coordinates":[-77.13724136352539,38.96674994665966]},"properties":{"ele":"55","name":"Park Police Police Station","source":"USGS Geonames","amenity":"police","addr:state":"MD","gnis:feature_id":"593217","id":"node/367798222","_lat":"38.96674994665966","_lon":"-77.13724136352539"}}]}