{"type":"FeatureCollection","features":[{"type":"Feature","geometry":{"type":"Point","coordinates":[-77.0895786,38.873431]},"properties":{"man_made":"surveillance","camera:type":"fixed","camera:mount":"traffic_signals","surveillance":"traffic","camera:direction":"70","surveillance:type":"camera","surveillance:zone":"traffic","id":"node/9392688846","_lat":"38.87342737499003","_lon":"-77.08958387374878","timestamp":"2022-01-04T18:12:45Z","version":1,"changeset":115766065,"user":"KB-01","uid":9509339}},{"type":"Feature","geometry":{"type":"Point","coordinates":[-77.1003599,38.870184]},"properties":{"man_made":"surveillance","camera:type":"fixed","camera:mount":"street_lamp","manufacturer":"Flock Safety","camera:direction":"90","surveillance:type":"ALPR","manufacturer:wikidata":"Q108485435","id":"node/13166892233","_lat":"38.87018642754998","_lon":"-77.10035562515259","timestamp":"2025-09-24T03:18:01Z","version":1,"changeset":172371678,"user":"chaubursin","uid":23309901}},{"type":"Feature","geometry":{"type":"Point","coordinates":[-77.1008946,38.8709804]},"properties":{"man_made":"surveillance","direction":"285","camera:type":"fixed","camera:mount":"pole","manufacturer":"Flock Safety","surveillance:type":"ALPR","manufacturer:wikidata":"Q108485435","id":"node/13155791970","_lat":"38.8709883252109","_lon":"-77.10089206695557","timestamp":"2026-04-17T20:58:49Z","version":2,"changeset":181476368,"user":"trywrite","uid":23837425}},{"type":"Feature","geometry":{"type":"Point","coordinates":[-77.0903967,38.8809193]},"properties":{"man_made":"surveillance","direction":"319","camera:type":"fixed","camera:mount":"light post (with solar panel)","manufacturer":"Leonardo","surveillance":"public","surveillance:type":"ALPR","surveillance:zone":"traffic","manufacturer:wikidata":"Q910379","id":"node/13485289801","_lat":"38.88091106008156","_lon":"-77.0903992652893","timestamp":"2026-01-26T03:34:55Z","version":1,"changeset":177704803,"user":"Mpugs","uid":23435942}},{"type":"Feature","geometry":{"type":"Point","coordinates":[-77.0874683,38.8807429]},"properties":{"man_made":"surveillance","direction":"112","camera:type":"fixed","manufacturer":"Flock Safety","surveillance":"public","surveillance:type":"ALPR","surveillance:zone":"traffic","manufacturer:wikidata":"Q108485435","id":"node/13443991301","_lat":"38.88074402213866","_lon":"-77.08745956420898","timestamp":"2026-01-09T23:29:26Z","version":1,"changeset":177044745,"user":"Ravenfc","uid":1973252}},{"type":"Feature","geometry":{"type":"Point","coordinates":[-77.0900209,38.8798564]},"properties":{"man_made":"surveillance","direction":"120","camera:type":"fixed","camera:mount":"pole","manufacturer":"Leonardo","surveillance":"public","surveillance:type":"ALPR","surveillance:zone":"traffic","manufacturer:wikidata":"Q910379","id":"node/13645173601","_lat":"38.87985871448575","_lon":"-77.09001302719116","timestamp":"2026-03-13T12:38:17Z","version":1,"changeset":179809150,"user":"Nibbler3000","uid":23750221}},{"type":"Feature","geometry":{"type":"Point","coordinates":[-77.087099,38.8455196]},"properties":{"man_made":"surveillance","camera:type":"fixed","camera:mount":"building","surveillance":"outdoor","camera:direction":"160","surveillance:type":"camera","surveillance:zone":"street","id":"node/10231599050","_lat":"38.845523658679355","_lon":"-77.08709478378296","timestamp":"2022-12-01T19:05:18Z","version":1,"changeset":129616843,"user":"Bcarr91","uid":8581596}},{"type":"Feature","geometry":{"type":"Point","coordinates":[-77.0927853,38.8493413]},"properties":{"man_made":"surveillance","direction":"315","camera:type":"fixed","manufacturer":"Flock Safety","surveillance:type":"ALPR","manufacturer:wikidata":"Q108485435","id":"node/13525145585","_lat":"38.84933391323548","_lon":"-77.09278106689453","timestamp":"2026-02-04T22:16:26Z","version":1,"changeset":178114382,"user":"is=","uid":23789789}},{"type":"Feature","geometry":{"type":"Point","coordinates":[-77.0855799,38.8499721]},"properties":{"man_made":"surveillance","direction":"245","camera:type":"fixed","manufacturer":"Flock Safety","surveillance":"public","surveillance:type":"ALPR","surveillance:zone":"traffic","manufacturer:wikidata":"Q108485435","id":"node/13335153601","_lat":"38.84996893582081","_lon":"-77.0855712890625","timestamp":"2025-11-27T13:47:00Z","version":3,"changeset":175199210,"user":"jazzytwigs","uid":23551699}},{"type":"Feature","geometry":{"type":"Point","coordinates":[-77.0883951,38.854215]},"properties":{"man_made":"surveillance","direction":"161","camera:type":"fixed","camera:mount":"pole","manufacturer":"Flock Safety","surveillance":"public","surveillance:type":"ALPR","surveillance:zone":"traffic","manufacturer:wikidata":"Q108485435","id":"node/13427079801","_lat":"38.8542134148847","_lon":"-77.08840370178223","timestamp":"2026-01-02T17:52:25Z","version":1,"changeset":176754670,"user":"joeys","uid":2193602}},{"type":"Feature","geometry":{"type":"Point","coordinates":[-77.0953683,38.8321341]},"properties":{"man_made":"surveillance","direction":"315","camera:type":"fixed","manufacturer":"Flock Safety","surveillance":"camera","surveillance:type":"ALPR","surveillance:zone":"traffic","manufacturer:wikidata":"Q108485435","id":"node/13139379656","_lat":"38.83213601502274","_lon":"-77.09537744522095","timestamp":"2025-09-12T18:23:10Z","version":1,"changeset":171845479,"user":"Abo Lition","uid":23269660}},{"type":"Feature","geometry":{"type":"Point","coordinates":[-77.0955287,38.8329496]},"properties":{"man_made":"surveillance","direction":"130","camera:type":"fixed","manufacturer":"Flock Safety","surveillance":"traffic","surveillance:type":"ALPR","surveillance:zone":"traffic","manufacturer:wikidata":"Q108485435","id":"node/13139673329","_lat":"38.83295505680647","_lon":"-77.09552764892578","timestamp":"2025-09-12T18:29:44Z","version":1,"changeset":171845667,"user":"Abo Lition","uid":23269660}},{"type":"Feature","geometry":{"type":"Point","coordinates":[-77.1010229,38.8364006]},"properties":{"man_made":"surveillance","direction":"330","camera:type":"fixed","camera:mount":"pole","manufacturer":"Flock Safety","surveillance":"public","surveillance:type":"ALPR","surveillance:zone":"traffic","manufacturer:wikidata":"Q108485435","id":"node/12697578212","_lat":"38.83639827222751","_lon":"-77.10102081298828","timestamp":"2025-03-24T22:18:19Z","version":1,"changeset":164053854,"user":"PhotogInKilt","uid":3568417}},{"type":"Feature","geometry":{"type":"Point","coordinates":[-77.1034917,38.8363191]},"properties":{"man_made":"surveillance","direction":"180","camera:type":"fixed","camera:mount":"pole","manufacturer":"Flock Safety","surveillance":"public","surveillance:type":"ALPR","surveillance:zone":"traffic","manufacturer:wikidata":"Q108485435","id":"node/12697578215","_lat":"38.836314701010195","_lon":"-77.10348844528198","timestamp":"2025-03-24T22:18:19Z","version":1,"changeset":164053854,"user":"PhotogInKilt","uid":3568417}},{"type":"Feature","geometry":{"type":"Point","coordinates":[-77.1061564,38.8375135]},"properties":{"man_made":"surveillance","direction":"200","camera:type":"fixed","camera:mount":"pole","manufacturer":"Flock Safety","surveillance":"public","surveillance:type":"ALPR","surveillance:zone":"traffic","manufacturer:wikidata":"Q108485435","id":"node/12697578214","_lat":"38.83751811707185","_lon":"-77.10614919662476","timestamp":"2025-03-24T22:18:19Z","version":1,"changeset":164053854,"user":"PhotogInKilt","uid":3568417}},{"type":"Feature","geometry":{"type":"Point","coordinates":[-77.1062679,38.8419651]},"properties":{"man_made":"surveillance","camera:type":"fixed","camera:mount":"pole","manufacturer":"Flock Safety","surveillance":"public","surveillance:type":"ALPR","surveillance:zone":"traffic","manufacturer:wikidata":"Q108485435","id":"node/13248692860","_lat":"38.84196389439049","_lon":"-77.10627794265747","timestamp":"2025-10-21T20:57:29Z","version":1,"changeset":173601433,"user":"andrewth1","uid":17230350}},{"type":"Feature","geometry":{"type":"Point","coordinates":[-77.106273,38.8419666]},"properties":{"man_made":"surveillance","direction":"98","camera:type":"fixed","camera:mount":"pole","manufacturer":"Flock Safety","surveillance":"public","surveillance:type":"ALPR","surveillance:zone":"traffic","manufacturer:wikidata":"Q108485435","id":"node/13631161101","_lat":"38.84196389439049","_lon":"-77.10627794265747","timestamp":"2026-03-09T22:23:09Z","version":1,"changeset":179606958,"user":"trywrite","uid":23837425}},{"type":"Feature","geometry":{"type":"Point","coordinates":[-77.1052907,38.8420624]},"properties":{"man_made":"surveillance","direction":"90","camera:type":"fixed","manufacturer":"Flock Safety","surveillance":"camera","surveillance:type":"ALPR","surveillance:zone":"traffic","manufacturer:wikidata":"Q108485435","id":"node/13162065811","_lat":"38.84206417187863","_lon":"-77.10529088973999","timestamp":"2025-09-22T12:34:59Z","version":1,"changeset":172292752,"user":"Abo Lition","uid":23269660}},{"type":"Feature","geometry":{"type":"Point","coordinates":[-77.0847055,38.837009]},"properties":{"man_made":"surveillance","direction":"180","camera:type":"fixed","camera:mount":"pole","manufacturer":"Flock Safety","surveillance":"public","surveillance:type":"ALPR","surveillance:zone":"traffic","manufacturer:wikidata":"Q108485435","id":"node/12858977477","_lat":"38.83701669618583","_lon":"-77.08471298217773","timestamp":"2025-05-23T20:30:32Z","version":1,"changeset":166672961,"user":"Will2285","uid":22867456}},{"type":"Feature","geometry":{"type":"Point","coordinates":[-77.0839867,38.8403808]},"properties":{"man_made":"surveillance","direction":"120","camera:type":"fixed","camera:mount":"pole","manufacturer":"Flock Safety","surveillance":"public","surveillance:type":"ALPR","surveillance:zone":"traffic","manufacturer:wikidata":"Q108485435","id":"node/12858977478","_lat":"38.840376148661505","_lon":"-77.08398342132568","timestamp":"2025-05-23T20:30:32Z","version":1,"changeset":166672961,"user":"Will2285","uid":22867456}},{"type":"Feature","geometry":{"type":"Point","coordinates":[-77.0857725,38.8428105]},"properties":{"man_made":"surveillance","direction":"15","camera:type":"fixed","manufacturer":"Flock Safety","surveillance:type":"ALPR","manufacturer:wikidata":"Q108485435","id":"node/13276824525","_lat":"38.84281624853543","_lon":"-77.08576440811157","timestamp":"2025-11-03T02:10:04Z","version":1,"changeset":174128388,"user":"deFlock42","uid":23463459}},{"type":"Feature","geometry":{"type":"Point","coordinates":[-77.0855674,38.8430683]},"properties":{"man_made":"surveillance","direction":"333","camera:type":"fixed","camera:mount":"pole","manufacturer":"Flock Safety","surveillance":"public","surveillance:type":"ALPR","surveillance:zone":"traffic","manufacturer:wikidata":"Q108485435","id":"node/13630073901","_lat":"38.843066938987846","_lon":"-77.0855712890625","timestamp":"2026-03-09T14:31:51Z","version":1,"changeset":179588612,"user":"trywrite","uid":23837425}},{"type":"Feature","geometry":{"type":"Point","coordinates":[-77.0746082,38.8423426]},"properties":{"man_made":"surveillance","direction":"90","camera:type":"fixed","manufacturer":"Flock Safety","surveillance":"camera","surveillance:type":"ALPR","surveillance:zone":"traffic","manufacturer:wikidata":"Q108485435","id":"node/13138814382","_lat":"38.84234829066105","_lon":"-77.07460641860962","timestamp":"2025-09-12T17:35:08Z","version":1,"changeset":171843661,"user":"Abo Lition","uid":23269660}},{"type":"Feature","geometry":{"type":"Point","coordinates":[-77.0749155,38.8423452]},"properties":{"man_made":"surveillance","direction":"180","camera:type":"fixed","manufacturer":"Flock Safety","surveillance:type":"ALPR","surveillance:zone":"traffic","manufacturer:wikidata":"Q108485435","id":"node/13128076272","_lat":"38.84234829066105","_lon":"-77.07490682601929","timestamp":"2025-09-08T14:08:34Z","version":1,"changeset":171637688,"user":"Abo Lition","uid":23269660}},{"type":"Feature","geometry":{"type":"Point","coordinates":[-77.090649,38.8293309]},"properties":{"man_made":"surveillance","direction":"295-340","camera:type":"fixed","manufacturer":"Flock Safety","surveillance":"public","surveillance:type":"ALPR","surveillance:zone":"traffic","manufacturer:wikidata":"Q108485435","id":"node/13520330001","_lat":"38.829327800215054","_lon":"-77.09065675735474","timestamp":"2026-02-02T20:39:36Z","version":1,"changeset":178023674,"user":"canttouchme","uid":23589250}},{"type":"Feature","geometry":{"type":"Point","coordinates":[-77.0885512,38.827737]},"properties":{"man_made":"surveillance","direction":"305","camera:type":"fixed","manufacturer":"Flock Safety","surveillance":"public","surveillance:type":"ALPR","surveillance:zone":"traffic","manufacturer:wikidata":"Q108485435","id":"node/13556553201","_lat":"38.82773977256815","_lon":"-77.08855390548706","timestamp":"2026-02-13T19:09:31Z","version":1,"changeset":178518303,"user":"qnsc","uid":21814443}},{"type":"Feature","geometry":{"type":"Point","coordinates":[-77.0869732,38.8264341]},"properties":{"man_made":"surveillance","direction":"89-134","camera:type":"fixed","manufacturer":"Flock Safety","surveillance":"public","surveillance:type":"ALPR","surveillance:zone":"traffic","manufacturer:wikidata":"Q108485435","id":"node/13520324901","_lat":"38.826435891806796","_lon":"-77.08696603775024","timestamp":"2026-02-02T20:37:53Z","version":1,"changeset":178023618,"user":"canttouchme","uid":23589250}},{"type":"Feature","geometry":{"type":"Point","coordinates":[-77.0825881,38.8231989]},"properties":{"man_made":"surveillance","camera:type":"dome","surveillance":"outdoor","surveillance:type":"camera","id":"node/13414597426","_lat":"38.823192802764424","_lon":"-77.08258867263794","timestamp":"2025-12-28T23:32:47Z","version":1,"changeset":176552245,"user":"AM2025","uid":23361715}},{"type":"Feature","geometry":{"type":"Point","coordinates":[-76.9948884,38.8839765]},"properties":{"man_made":"surveillance","operator":"Metro Police Department","direction":"110","camera:type":"fixed","manufacturer":"Flock Safety","surveillance":"public","surveillance:type":"ALPR","surveillance:zone":"traffic","manufacturer:wikidata":"Q108485435","id":"node/13667475401","_lat":"38.8839844881461","_lon":"-76.99489116668701","timestamp":"2026-03-21T18:34:45Z","version":1,"changeset":180220976,"user":"Wedge A","uid":23307562}},{"type":"Feature","geometry":{"type":"Point","coordinates":[-76.9950526,38.8844092]},"properties":{"man_made":"surveillance","camera:type":"fixed","manufacturer":"Flock Safety","camera:direction":"284","operator:wikidata":"Q108485435","surveillance:type":"ALPR","surveillance:zone":"traffic","id":"node/13179006642","_lat":"38.88440206322224","_lon":"-76.99506282806396","timestamp":"2025-10-20T22:33:26Z","version":2,"changeset":173558155,"user":"floweringnight","uid":19955230}},{"type":"Feature","geometry":{"type":"Point","coordinates":[-76.9950803,38.8791983]},"properties":{"man_made":"surveillance","operator":"Metro Police Department","direction":"182","camera:type":"fixed","manufacturer":"Flock Safety","surveillance":"public","surveillance:type":"ALPR","surveillance:zone":"traffic","manufacturer:wikidata":"Q108485435","id":"node/13669753701","_lat":"38.879190550462965","_lon":"-76.99508428573608","timestamp":"2026-03-22T18:06:30Z","version":1,"changeset":180265589,"user":"Wedge A","uid":23307562}},{"type":"Feature","geometry":{"type":"Point","coordinates":[-76.9941518,38.879339]},"properties":{"man_made":"surveillance","operator":"Metro Police Department","direction":"273","camera:type":"fixed","manufacturer":"Flock Safety","surveillance":"public","surveillance:type":"ALPR","surveillance:zone":"traffic","manufacturer:wikidata":"Q108485435","id":"node/13669761201","_lat":"38.87934088791587","_lon":"-76.99416160583496","timestamp":"2026-03-22T18:10:38Z","version":1,"changeset":180265808,"user":"Wedge A","uid":23307562}},{"type":"Feature","geometry":{"type":"Point","coordinates":[-76.9907,38.8693777]},"properties":{"Owner":"US Park Police","man_made":"surveillance","direction":"343-53","camera:type":"fixed","manufacturer":"Flock Safety","surveillance":"public","surveillance:type":"ALPR","surveillance:zone":"traffic","manufacturer:wikidata":"Q108485435","id":"node/13592686901","_lat":"38.86938452084263","_lon":"-76.99070692062378","timestamp":"2026-02-23T12:31:20Z","version":3,"changeset":178941416,"user":"Mavis_B","uid":23860194}},{"type":"Feature","geometry":{"type":"Point","coordinates":[-76.9261611,38.8848667]},"properties":{"man_made":"surveillance","direction":"20","camera:type":"fixed","manufacturer":"Flock Safety","surveillance":"public","surveillance:type":"ALPR","surveillance:zone":"traffic","manufacturer:wikidata":"Q108485435","id":"node/13447203801","_lat":"38.8848697443938","_lon":"-76.9261622428894","timestamp":"2026-01-10T23:24:06Z","version":1,"changeset":177080247,"user":"Wedge A","uid":23307562}},{"type":"Feature","geometry":{"type":"Point","coordinates":[-76.9264515,38.8847103]},"properties":{"man_made":"surveillance","direction":"286","camera:type":"fixed","manufacturer":"Flock Safety","surveillance":"public","surveillance:type":"ALPR","surveillance:zone":"traffic","manufacturer:wikidata":"Q108485435","id":"node/13447201502","_lat":"38.884702715757356","_lon":"-76.92644119262695","timestamp":"2026-01-10T23:21:55Z","version":1,"changeset":177080214,"user":"Wedge A","uid":23307562}},{"type":"Feature","geometry":{"type":"Point","coordinates":[-76.9259681,38.8846172]},"properties":{"man_made":"surveillance","operator":"Metro Police Department","direction":"92","camera:type":"fixed","manufacturer":"Flock Safety","surveillance":"public","surveillance:type":"ALPR","surveillance:zone":"traffic","manufacturer:wikidata":"Q108485435","id":"node/13447204301","_lat":"38.88461920129191","_lon":"-76.92596912384033","timestamp":"2026-01-10T23:25:12Z","version":1,"changeset":177080265,"user":"Wedge A","uid":23307562}},{"type":"Feature","geometry":{"type":"Point","coordinates":[-76.9510488,38.8833769]},"properties":{"man_made":"surveillance","operator":"Metro Police Department","direction":"120","camera:type":"fixed","manufacturer":"Flock Safety","surveillance":"public","surveillance:type":"ALPR","surveillance:zone":"traffic","manufacturer:wikidata":"Q108485435","id":"node/13447159701","_lat":"38.88338317572479","_lon":"-76.95105314254761","timestamp":"2026-01-10T22:43:56Z","version":1,"changeset":177079479,"user":"Wedge A","uid":23307562}},{"type":"Feature","geometry":{"type":"Point","coordinates":[-76.9515379,38.8834382]},"properties":{"man_made":"surveillance","operator":"Metro Police Department","direction":"276","camera:type":"fixed","manufacturer":"Flock Safety","surveillance":"public","surveillance:type":"ALPR","surveillance:zone":"traffic","manufacturer:wikidata":"Q108485435","id":"node/13447159301","_lat":"38.88343328528762","_lon":"-76.95154666900635","timestamp":"2026-01-10T22:42:58Z","version":1,"changeset":177079450,"user":"Wedge A","uid":23307562}},{"type":"Feature","geometry":{"type":"Point","coordinates":[-76.9485478,38.8797213]},"properties":{"man_made":"surveillance","direction":"185","camera:type":"fixed","manufacturer":"Flock Safety","surveillance":"public","surveillance:type":"ALPR","surveillance:zone":"traffic","manufacturer:wikidata":"Q108485435","id":"node/13660083001","_lat":"38.879725082183796","_lon":"-76.94854259490967","timestamp":"2026-03-18T23:02:47Z","version":1,"changeset":180082527,"user":"FiloDo4","uid":23924244}},{"type":"Feature","geometry":{"type":"Point","coordinates":[-76.9590011,38.8795915]},"properties":{"man_made":"surveillance","direction":"77","camera:type":"fixed","manufacturer":"Flock Safety","surveillance":"public","surveillance:type":"ALPR","surveillance:zone":"traffic","manufacturer:wikidata":"Q108485435","id":"node/13660107201","_lat":"38.87959144963054","_lon":"-76.95899248123169","timestamp":"2026-03-18T23:21:52Z","version":1,"changeset":180082824,"user":"FiloDo4","uid":23924244}},{"type":"Feature","geometry":{"type":"Point","coordinates":[-76.9765858,38.8753452]},"properties":{"man_made":"surveillance","direction":"306","camera:type":"fixed","camera:mount":"pole","manufacturer":"Flock Safety","surveillance":"public","surveillance:type":"ALPR","surveillance:zone":"traffic","manufacturer:wikidata":"Q108485435","id":"node/13635201301","_lat":"38.87534848540986","_lon":"-76.97658777236938","timestamp":"2026-03-10T22:52:05Z","version":1,"changeset":179662063,"user":"FiloDo4","uid":23924244}},{"type":"Feature","geometry":{"type":"Point","coordinates":[-76.9855534,38.8543778]},"properties":{"man_made":"surveillance","operator":"Metro Police Department","direction":"128","camera:type":"fixed","manufacturer":"Flock Safety","surveillance":"public","surveillance:type":"ALPR","surveillance:zone":"traffic","manufacturer:wikidata":"Q108485435","id":"node/13306999001","_lat":"38.854380515177496","_lon":"-76.98555707931519","timestamp":"2025-11-15T19:29:53Z","version":1,"changeset":174701180,"user":"Wedge A","uid":23307562}},{"type":"Feature","geometry":{"type":"Point","coordinates":[-76.9738373,38.8510014]},"properties":{"man_made":"surveillance","operator":"Metro Police Department","direction":"62","camera:type":"fixed","manufacturer":"Flock Safety","surveillance":"public","surveillance:type":"ALPR","surveillance:zone":"traffic","manufacturer:wikidata":"Q108485435","id":"node/13447082501","_lat":"38.85100501313215","_lon":"-76.97384119033813","timestamp":"2026-01-10T21:46:14Z","version":1,"changeset":177077866,"user":"Wedge A","uid":23307562}},{"type":"Feature","geometry":{"type":"Point","coordinates":[-76.9712307,38.8518992]},"properties":{"man_made":"surveillance","operator":"Metro Police Department","direction":"217","camera:type":"fixed","manufacturer":"Flock Safety","surveillance":"public","surveillance:type":"ALPR","surveillance:zone":"traffic","manufacturer:wikidata":"Q108485435","id":"node/13447103601","_lat":"38.85190739075284","_lon":"-76.9712233543396","timestamp":"2026-01-10T21:57:29Z","version":1,"changeset":177078173,"user":"Wedge A","uid":23307562}},{"type":"Feature","geometry":{"type":"Point","coordinates":[-76.9701977,38.8559297]},"properties":{"man_made":"surveillance","operator":"Metro Police Department","direction":"322","camera:type":"fixed","manufacturer":"Flock Safety","surveillance":"public","surveillance:type":"ALPR","surveillance:zone":"traffic","manufacturer:wikidata":"Q108485435","id":"node/13447133601","_lat":"38.8559345290972","_lon":"-76.97019338607788","timestamp":"2026-01-10T22:19:10Z","version":1,"changeset":177078769,"user":"Wedge A","uid":23307562}},{"type":"Feature","geometry":{"type":"Point","coordinates":[-76.9698862,38.8564637]},"properties":{"man_made":"surveillance","operator":"Metro Police Department","direction":"0","camera:type":"fixed","manufacturer":"Flock Safety","surveillance":"public","surveillance:type":"ALPR","surveillance:zone":"traffic","manufacturer:wikidata":"Q108485435","id":"node/13447131701","_lat":"38.8564692357123","_lon":"-76.96989297866821","timestamp":"2026-01-10T22:17:40Z","version":1,"changeset":177078718,"user":"Wedge A","uid":23307562}},{"type":"Feature","geometry":{"type":"Point","coordinates":[-76.9573528,38.8522344]},"properties":{"man_made":"surveillance","direction":"232","camera:type":"fixed","camera:mount":"pole","manufacturer":"Flock Safety","surveillance":"public","surveillance:type":"ALPR","surveillance:zone":"traffic","manufacturer:wikidata":"Q108485435","id":"node/13601959006","_lat":"38.85224160178129","_lon":"-76.95736169815063","timestamp":"2026-02-26T08:19:41Z","version":1,"changeset":179072754,"user":"Dck2856","uid":23872775}},{"type":"Feature","geometry":{"type":"Point","coordinates":[-76.9484038,38.8731627]},"properties":{"man_made":"surveillance","direction":"353","camera:type":"fixed","manufacturer":"Flock Safety","surveillance":"public","surveillance:type":"ALPR","surveillance:zone":"traffic","manufacturer:wikidata":"Q108485435","id":"node/13660101101","_lat":"38.87316008594709","_lon":"-76.94841384887695","timestamp":"2026-03-18T23:14:07Z","version":1,"changeset":180082723,"user":"FiloDo4","uid":23924244}},{"type":"Feature","geometry":{"type":"Point","coordinates":[-77.0500386,38.8706516]},"properties":{"man_made":"surveillance","direction":"180","camera:type":"fixed","manufacturer":"Flock Safety","surveillance":"camera","surveillance:type":"ALPR","surveillance:zone":"traffic","manufacturer:wikidata":"Q108485435","id":"node/13109278151","_lat":"38.870654202284896","_lon":"-77.0500373840332","timestamp":"2025-08-30T21:10:32Z","version":1,"changeset":171246049,"user":"Ja$0n","uid":23241550}},{"type":"Feature","geometry":{"type":"Point","coordinates":[-77.0513434,38.8728505]},"properties":{"man_made":"surveillance","direction":"308","camera:type":"fixed","manufacturer":"Flock Safety","surveillance":"public","surveillance:type":"ALPR","surveillance:zone":"traffic","manufacturer:wikidata":"Q108485435","id":"node/13743188101","_lat":"38.87284267890303","_lon":"-77.05134630203247","timestamp":"2026-04-19T16:50:29Z","version":1,"changeset":181547402,"user":"Nope2","uid":23978437}},{"type":"Feature","geometry":{"type":"Point","coordinates":[-77.0511604,38.8723768]},"properties":{"man_made":"surveillance","direction":"306","camera:type":"fixed","manufacturer":"Flock Safety","surveillance":"public","surveillance:type":"ALPR","surveillance:zone":"traffic","manufacturer:wikidata":"Q108485435","id":"node/13680794301","_lat":"38.872374918570245","_lon":"-77.0511531829834","timestamp":"2026-03-26T02:03:47Z","version":1,"changeset":180433388,"user":"Nope2","uid":23978437}},{"type":"Feature","geometry":{"type":"Point","coordinates":[-77.0603972,38.8681064]},"properties":{"man_made":"surveillance","direction":"99","camera:type":"fixed","manufacturer":"Flock Safety","surveillance":"public","surveillance:type":"ALPR","surveillance:zone":"traffic","manufacturer:wikidata":"Q108485435","id":"node/13743186801","_lat":"38.86809810993731","_lon":"-77.06040143966675","timestamp":"2026-04-19T16:49:47Z","version":1,"changeset":181547385,"user":"Nope2","uid":23978437}},{"type":"Feature","geometry":{"type":"Point","coordinates":[-77.0603146,38.8682937]},"properties":{"man_made":"surveillance","direction":"130","camera:type":"fixed","manufacturer":"Flock Safety","surveillance":"public","surveillance:type":"ALPR","surveillance:zone":"traffic","manufacturer:wikidata":"Q108485435","id":"node/13743185001","_lat":"38.868298591090195","_lon":"-77.06031560897827","timestamp":"2026-04-19T16:49:24Z","version":1,"changeset":181547370,"user":"Nope2","uid":23978437}},{"type":"Feature","geometry":{"type":"Point","coordinates":[-77.0601163,38.8653525]},"properties":{"man_made":"surveillance","direction":"230","camera:type":"fixed","manufacturer":"Flock Safety","surveillance:type":"ALPR","manufacturer:wikidata":"Q108485435","id":"node/13233862861","_lat":"38.865358144183375","_lon":"-77.0601224899292","timestamp":"2025-10-15T03:13:54Z","version":1,"changeset":173299676,"user":"totalplan","uid":22214189}},{"type":"Feature","geometry":{"type":"Point","coordinates":[-77.0606478,38.8654893]},"properties":{"man_made":"surveillance","direction":"220","camera:type":"fixed","manufacturer":"Flock Safety","surveillance:type":"ALPR","manufacturer:wikidata":"Q108485435","id":"node/13233862860","_lat":"38.86549180349945","_lon":"-77.06063747406006","timestamp":"2025-10-15T03:13:54Z","version":1,"changeset":173299676,"user":"totalplan","uid":22214189}},{"type":"Feature","geometry":{"type":"Point","coordinates":[-77.059826,38.8631634]},"properties":{"man_made":"surveillance","operator":"Simon Property Group","direction":"200","camera:type":"fixed","manufacturer":"Flock Safety","operator:wikidata":"Q2287759","surveillance:type":"ALPR","manufacturer:wikidata":"Q108485435","id":"node/13155686865","_lat":"38.86316943713683","_lon":"-77.05982208251953","timestamp":"2025-09-19T14:41:28Z","version":1,"changeset":172166920,"user":"hello_moto","uid":22566125}},{"type":"Feature","geometry":{"type":"Point","coordinates":[-77.0598398,38.8630919]},"properties":{"man_made":"surveillance","camera:type":"fixed","manufacturer":"Flock Safety","surveillance:type":"ALPR","manufacturer:wikidata":"Q108485435","id":"node/6854499560","_lat":"38.86308589736501","_lon":"-77.05984354019165","timestamp":"2026-01-05T12:42:01Z","version":2,"changeset":176859982,"user":"Diva Doll","uid":23359700}},{"type":"Feature","geometry":{"type":"Point","coordinates":[-77.0619462,38.8612456]},"properties":{"man_made":"surveillance","operator":"Simon Property Group","direction":"5","camera:type":"fixed","manufacturer":"Flock Safety","operator:wikidata":"Q2287759","surveillance:type":"ALPR","manufacturer:wikidata":"Q108485435","id":"node/13155696190","_lat":"38.86124799755237","_lon":"-77.06194639205933","timestamp":"2025-09-19T14:40:01Z","version":1,"changeset":172166846,"user":"hello_moto","uid":22566125}},{"type":"Feature","geometry":{"type":"Point","coordinates":[-77.0665072,38.8682256]},"properties":{"man_made":"surveillance","camera:type":"dome","camera:mount":"pole","surveillance":"public","surveillance:type":"camera","surveillance:zone":"area","id":"node/10052038789","_lat":"38.86823176410206","_lon":"-77.0665168762207","timestamp":"2022-09-25T18:59:18Z","version":1,"changeset":126626860,"user":"mamanakis","uid":20713}},{"type":"Feature","geometry":{"type":"Point","coordinates":[-77.0667244,38.869171]},"properties":{"man_made":"surveillance","camera:type":"dome","camera:mount":"pole","surveillance":"public","surveillance:type":"camera","surveillance:zone":"area","id":"node/10052038808","_lat":"38.86916733621925","_lon":"-77.0667314529419","timestamp":"2022-10-29T23:52:24Z","version":2,"changeset":128229953,"user":"themamanakis","uid":11523910}},{"type":"Feature","geometry":{"type":"Point","coordinates":[-77.0559355,38.8800059]},"properties":{"man_made":"surveillance","direction":"80","camera:type":"fixed","manufacturer":"Flock Safety","surveillance":"traffic","surveillance:type":"ALPR","surveillance:zone":"traffic","manufacturer:wikidata":"Q108485435","id":"node/13244765533","_lat":"38.88000905052505","_lon":"-77.05593824386597","timestamp":"2025-10-20T00:44:06Z","version":1,"changeset":173514385,"user":"PackerFan_0007!","uid":23414436}},{"type":"Feature","geometry":{"type":"Point","coordinates":[-77.0563775,38.8781742]},"properties":{"man_made":"surveillance","direction":"120","camera:type":"fixed","camera:mount":"pole","manufacturer":"Flock Safety","surveillance":"public","surveillance:type":"ALPR","surveillance:zone":"traffic","manufacturer:wikidata":"Q108485435","id":"node/12832220487","_lat":"38.87817158823208","_lon":"-77.05636739730835","timestamp":"2025-05-12T20:42:33Z","version":2,"changeset":166172643,"user":"singleuse1","uid":22883776}},{"type":"Feature","geometry":{"type":"Point","coordinates":[-77.0475567,38.8756393]},"properties":{"man_made":"surveillance","direction":"137","camera:type":"fixed","camera:mount":"pole","manufacturer":"Flock Safety","surveillance":"public","surveillance:type":"ALPR","surveillance:zone":"traffic","manufacturer:wikidata":"Q108485435","id":"node/13618262501","_lat":"38.875632471240266","_lon":"-77.04754829406738","timestamp":"2026-03-04T16:47:22Z","version":1,"changeset":179358780,"user":"dalekpredator","uid":14714197}},{"type":"Feature","geometry":{"type":"Point","coordinates":[-77.0473139,38.8757691]},"properties":{"man_made":"surveillance","direction":"322","camera:type":"fixed","camera:mount":"pole","manufacturer":"Flock Safety","surveillance":"public","surveillance:type":"ALPR","surveillance:zone":"traffic","manufacturer:wikidata":"Q108485435","id":"node/13618258403","_lat":"38.87576611123839","_lon":"-77.04731225967407","timestamp":"2026-03-04T16:46:48Z","version":1,"changeset":179358739,"user":"dalekpredator","uid":14714197}},{"type":"Feature","geometry":{"type":"Point","coordinates":[-77.0415084,38.882723]},"properties":{"ref":"1","height":"15","man_made":"surveillance","check_date":"2023-09-01","camera:type":"dome","camera:mount":"pole","surveillance":"public","surveillance:type":"camera","surveillance:zone":"memorial","id":"node/4838375356","_lat":"38.882715044843565","_lon":"-77.0415186882019","timestamp":"2023-09-01T10:29:06Z","version":3,"changeset":140671934,"user":"MBTY1","uid":6237857}},{"type":"Feature","geometry":{"type":"Point","coordinates":[-77.0346405,38.8803462]},"properties":{"man_made":"surveillance","direction":"253","camera:type":"fixed","manufacturer":"Flock Safety","surveillance":"public","surveillance:type":"ALPR","surveillance:zone":"traffic","manufacturer:wikidata":"Q108485435","id":"node/13702630701","_lat":"38.88034312947366","_lon":"-77.03463077545166","timestamp":"2026-04-02T22:37:26Z","version":1,"changeset":180789383,"user":"Ted_G","uid":23467270}},{"type":"Feature","geometry":{"type":"Point","coordinates":[-77.0364295,38.8813543]},"properties":{"name":"441","height":"20","man_made":"surveillance","check_date":"2023-04-23","camera:type":"fixed","camera:mount":"wall","surveillance":"public","camera:direction":"270-360","surveillance:type":"camera","surveillance:zone":"memorial","id":"node/4838801101","_lat":"38.88136206056595","_lon":"-77.03643321990967","timestamp":"2023-04-23T21:00:08Z","version":3,"changeset":135277506,"user":"Peter Newman","uid":7096975}},{"type":"Feature","geometry":{"type":"Point","coordinates":[-77.0364333,38.8814711]},"properties":{"name":"440","height":"20","man_made":"surveillance","check_date":"2023-04-23","camera:type":"fixed","camera:mount":"wall","surveillance":"public","camera:direction":"180-270","surveillance:type":"camera","surveillance:zone":"memorial","id":"node/4838801100","_lat":"38.88147898615017","_lon":"-77.03643321990967","timestamp":"2023-04-23T21:00:07Z","version":3,"changeset":135277506,"user":"Peter Newman","uid":7096975}},{"type":"Feature","geometry":{"type":"Point","coordinates":[-77.0366195,38.8814887]},"properties":{"name":"443","height":"20","man_made":"surveillance","check_date":"2023-04-23","camera:type":"fixed","camera:mount":"wall","surveillance":"public","camera:direction":"90-180","surveillance:type":"camera","surveillance:zone":"building","id":"node/4838801103","_lat":"38.88149568978935","_lon":"-77.03662633895874","timestamp":"2023-04-23T21:00:07Z","version":4,"changeset":135277506,"user":"Peter Newman","uid":7096975}},{"type":"Feature","geometry":{"type":"Point","coordinates":[-77.0366194,38.8813715]},"properties":{"name":"442","height":"20","man_made":"surveillance","check_date":"2023-04-23","camera:type":"fixed","camera:mount":"wall","surveillance":"public","camera:direction":"0-90","surveillance:type":"camera","surveillance:zone":"memorial","id":"node/4838801102","_lat":"38.88137876423261","_lon":"-77.03662633895874","timestamp":"2023-04-23T21:00:08Z","version":3,"changeset":135277506,"user":"Peter Newman","uid":7096975}},{"type":"Feature","geometry":{"type":"Point","coordinates":[-77.0419958,38.8829753]},"properties":{"ref":"2","height":"15","man_made":"surveillance","check_date":"2023-09-01","camera:type":"dome","camera:mount":"pole","surveillance":"public","surveillance:type":"camera","surveillance:zone":"memorial","id":"node/4838375357","_lat":"38.88298229795001","_lon":"-77.04199075698853","timestamp":"2023-09-01T10:29:03Z","version":3,"changeset":140671934,"user":"MBTY1","uid":6237857}},{"type":"Feature","geometry":{"type":"Point","coordinates":[-77.0423127,38.8831304]},"properties":{"ref":"2","height":"15","man_made":"surveillance","check_date":"2023-09-01","camera:type":"dome","camera:mount":"pole","surveillance":"public","surveillance:type":"camera","surveillance:zone":"memorial","id":"node/4838375358","_lat":"38.883132627380604","_lon":"-77.04231262207031","timestamp":"2023-09-01T10:29:00Z","version":3,"changeset":140671934,"user":"MBTY1","uid":6237857}},{"type":"Feature","geometry":{"type":"Point","coordinates":[-77.0426131,38.8831992]},"properties":{"ref":"3","height":"15","man_made":"surveillance","check_date":"2023-09-01","camera:type":"dome","camera:mount":"pole","surveillance":"public","surveillance:type":"camera","surveillance:zone":"memorial","id":"node/4838375364","_lat":"38.883199440358766","_lon":"-77.04261302947998","timestamp":"2023-09-01T10:28:59Z","version":3,"changeset":140671934,"user":"MBTY1","uid":6237857}},{"type":"Feature","geometry":{"type":"Point","coordinates":[-77.0432276,38.8832945]},"properties":{"ref":"5","height":"15","man_made":"surveillance","check_date":"2023-09-01","camera:type":"dome","camera:mount":"pole","surveillance":"public","surveillance:type":"camera","surveillance:zone":"memorial","id":"node/4838375362","_lat":"38.88329965970823","_lon":"-77.04323530197144","timestamp":"2023-09-01T10:28:56Z","version":3,"changeset":140671934,"user":"MBTY1","uid":6237857}},{"type":"Feature","geometry":{"type":"Point","coordinates":[-77.0432348,38.8834982]},"properties":{"ref":"4","height":"15","man_made":"surveillance","check_date":"2023-09-01","camera:type":"dome","camera:mount":"pole","surveillance":"public","surveillance:type":"camera","surveillance:zone":"memorial","id":"node/4838375363","_lat":"38.883500097983074","_lon":"-77.04323530197144","timestamp":"2023-09-01T10:28:55Z","version":3,"changeset":140671934,"user":"MBTY1","uid":6237857}},{"type":"Feature","geometry":{"type":"Point","coordinates":[-77.0010392,38.8207325]},"properties":{"man_made":"surveillance","direction":"145","camera:type":"fixed","manufacturer":"Flock Safety","surveillance":"public","surveillance:type":"ALPR","surveillance:zone":"traffic","manufacturer:wikidata":"Q108485435","id":"node/13615379801","_lat":"38.82073531217773","_lon":"-77.0010495185852","timestamp":"2026-03-03T19:33:15Z","version":1,"changeset":179319818,"user":"UTIL221","uid":23866722}},{"type":"Feature","geometry":{"type":"Point","coordinates":[-77.0004979,38.8273123]},"properties":{"man_made":"surveillance","operator":"Metro Police Department","direction":"348","camera:type":"fixed","manufacturer":"Flock Safety","surveillance":"public","surveillance:type":"ALPR","surveillance:zone":"traffic","manufacturer:wikidata":"Q108485435","id":"node/13625466902","_lat":"38.827305148301065","_lon":"-77.00049161911011","timestamp":"2026-03-07T18:26:55Z","version":1,"changeset":179504909,"user":"Wedge A","uid":23307562}},{"type":"Feature","geometry":{"type":"Point","coordinates":[-77.0496498,38.8219771]},"properties":{"man_made":"surveillance","direction":"340","camera:type":"fixed","manufacturer":"Flock Safety","surveillance":"traffic","surveillance:type":"ALPR","surveillance:zone":"traffic","manufacturer:wikidata":"Q108485435","id":"node/13180329146","_lat":"38.82197242688392","_lon":"-77.04965114593506","timestamp":"2025-09-29T12:32:26Z","version":1,"changeset":172610822,"user":"Abo Lition","uid":23269660}},{"type":"Feature","geometry":{"type":"Point","coordinates":[-77.0503156,38.8239944]},"properties":{"man_made":"surveillance","direction":"170","camera:type":"fixed","manufacturer":"Flock Safety","surveillance":"traffic","surveillance:type":"ALPR","surveillance:zone":"traffic","manufacturer:wikidata":"Q108485435","id":"node/13180341367","_lat":"38.82399523030145","_lon":"-77.05031633377075","timestamp":"2025-09-29T12:35:25Z","version":1,"changeset":172610980,"user":"Abo Lition","uid":23269660}},{"type":"Feature","geometry":{"type":"Point","coordinates":[-77.0610899,38.8276274]},"properties":{"man_made":"surveillance","direction":"60","camera:type":"fixed","manufacturer":"Flock Safety","surveillance":"public","surveillance:type":"ALPR","surveillance:zone":"traffic","manufacturer:wikidata":"Q108485435","id":"node/13309457501","_lat":"38.82762275860341","_lon":"-77.06108808517456","timestamp":"2025-11-16T22:01:36Z","version":1,"changeset":174747659,"user":"thewildernessrn","uid":23454452}},{"type":"Feature","geometry":{"type":"Point","coordinates":[-77.0439388,38.8217613]},"properties":{"man_made":"surveillance","direction":"187","camera:type":"fixed","camera:mount":"street_lamp","manufacturer":"Flock Safety","surveillance":"public","surveillance:type":"ALPR","surveillance:zone":"traffic","manufacturer:wikidata":"Q108485435","id":"node/13605887801","_lat":"38.821755097478245","_lon":"-77.04394340515137","timestamp":"2026-02-27T15:26:21Z","version":1,"changeset":179136654,"user":"dalekpredator","uid":14714197}},{"type":"Feature","geometry":{"type":"Point","coordinates":[-77.0612661,38.8366279]},"properties":{"man_made":"surveillance","direction":"332","camera:type":"fixed","manufacturer":"Flock Safety","surveillance":"public","surveillance:type":"ALPR","surveillance:zone":"traffic","manufacturer:wikidata":"Q108485435","id":"node/13629964101","_lat":"38.83663227111401","_lon":"-77.06125974655151","timestamp":"2026-03-09T13:22:08Z","version":1,"changeset":179585445,"user":"trywrite","uid":23837425}},{"type":"Feature","geometry":{"type":"Point","coordinates":[-77.052467,38.8400614]},"properties":{"man_made":"surveillance","direction":"145","camera:type":"fixed","manufacturer":"Flock Safety","surveillance:type":"ALPR","manufacturer:wikidata":"Q108485435","id":"node/13005483056","_lat":"38.84005859526434","_lon":"-77.05246210098267","timestamp":"2025-07-17T00:52:53Z","version":2,"changeset":169037730,"user":"hello_moto","uid":22566125}},{"type":"Feature","geometry":{"type":"Point","coordinates":[-77.0495358,38.8408929]},"properties":{"man_made":"surveillance","direction":"160","camera:type":"fixed","manufacturer":"Flock Safety","surveillance":"camera","surveillance:type":"ALPR","surveillance:zone":"traffic","manufacturer:wikidata":"Q108485435","id":"node/13160645055","_lat":"38.840894259056626","_lon":"-77.04954385757446","timestamp":"2025-09-21T20:40:28Z","version":1,"changeset":172265291,"user":"Abo Lition","uid":23269660}},{"type":"Feature","geometry":{"type":"Point","coordinates":[-77.0495675,38.8418183]},"properties":{"man_made":"surveillance","direction":"330","camera:type":"fixed","manufacturer":"Flock Safety","surveillance:type":"ALPR","surveillance:zone":"traffic","manufacturer:wikidata":"Q108485435","id":"node/13160654111","_lat":"38.841813477893226","_lon":"-77.04956531524658","timestamp":"2025-09-21T20:42:43Z","version":1,"changeset":172265395,"user":"Abo Lition","uid":23269660}},{"type":"Feature","geometry":{"type":"Point","coordinates":[-77.0016624,38.8309212]},"properties":{"man_made":"surveillance","operator":"Metro Police Department","direction":"89","camera:type":"fixed","manufacturer":"Flock Safety","surveillance":"public","surveillance:type":"ALPR","surveillance:zone":"traffic","manufacturer:wikidata":"Q108485435","id":"node/13625476601","_lat":"38.83091579243725","_lon":"-77.00167179107666","timestamp":"2026-03-07T18:29:41Z","version":1,"changeset":179505048,"user":"Wedge A","uid":23307562}},{"type":"Feature","geometry":{"type":"Point","coordinates":[-77.0019246,38.8308696]},"properties":{"man_made":"surveillance","operator":"Metro Police Department","direction":"201","camera:type":"fixed","manufacturer":"Flock Safety","surveillance":"public","surveillance:type":"ALPR","surveillance:zone":"traffic","manufacturer:wikidata":"Q108485435","id":"node/13625478601","_lat":"38.83086564585611","_lon":"-77.00192928314209","timestamp":"2026-03-07T18:30:49Z","version":1,"changeset":179505097,"user":"Wedge A","uid":23307562}},{"type":"Feature","geometry":{"type":"Point","coordinates":[-77.0024905,38.830879]},"properties":{"man_made":"surveillance","operator":"Metro Police Department","direction":"292","camera:type":"fixed","manufacturer":"Flock Safety","surveillance":"public","surveillance:type":"ALPR","surveillance:zone":"traffic","manufacturer:wikidata":"Q108485435","id":"node/13625478801","_lat":"38.8308823613871","_lon":"-77.00248718261719","timestamp":"2026-03-07T18:31:49Z","version":1,"changeset":179505125,"user":"Wedge A","uid":23307562}},{"type":"Feature","geometry":{"type":"Point","coordinates":[-77.0647148,38.8446876]},"properties":{"man_made":"surveillance","direction":"355","camera:type":"fixed","manufacturer":"Flock Safety","surveillance":"camera","surveillance:type":"ALPR","surveillance:zone":"traffic","manufacturer:wikidata":"Q108485435","id":"node/13143017647","_lat":"38.84468804925629","_lon":"-77.0647144317627","timestamp":"2025-09-14T17:57:01Z","version":1,"changeset":171930606,"user":"Abo Lition","uid":23269660}},{"type":"Feature","geometry":{"type":"Point","coordinates":[-77.0645992,38.8444011]},"properties":{"man_made":"surveillance","direction":"170","camera:type":"fixed","manufacturer":"Flock Safety","surveillance":"camera","surveillance:type":"ALPR","surveillance:zone":"traffic","manufacturer:wikidata":"Q108485435","id":"node/13143152429","_lat":"38.84440393981683","_lon":"-77.0646071434021","timestamp":"2025-09-14T19:15:29Z","version":1,"changeset":171933331,"user":"Abo Lition","uid":23269660}},{"type":"Feature","geometry":{"type":"Point","coordinates":[-77.0441756,38.8836817]},"properties":{"ref":"8","height":"15","man_made":"surveillance","check_date":"2023-09-01","camera:type":"dome","camera:mount":"pole","surveillance":"public","surveillance:type":"camera","surveillance:zone":"memorial","id":"node/4838375361","_lat":"38.88368383257159","_lon":"-77.04417943954468","timestamp":"2023-09-01T10:28:34Z","version":3,"changeset":140671934,"user":"MBTY1","uid":6237857}},{"type":"Feature","geometry":{"type":"Point","coordinates":[-77.0445333,38.8840087]},"properties":{"ref":"9","height":"15","man_made":"surveillance","check_date":"2023-09-01","camera:type":"dome","camera:mount":"pole","surveillance":"public","surveillance:type":"camera","surveillance:zone":"memorial","id":"node/4838375359","_lat":"38.88400119119626","_lon":"-77.04452276229858","timestamp":"2023-09-01T10:28:28Z","version":3,"changeset":140671934,"user":"MBTY1","uid":6237857}},{"type":"Feature","geometry":{"type":"Point","coordinates":[-77.0438851,38.8838929]},"properties":{"ref":"7","height":"15","man_made":"surveillance","check_date":"2023-09-01","camera:type":"dome","camera:mount":"pole","surveillance":"public","surveillance:type":"camera","surveillance:zone":"memorial","id":"node/4838375360","_lat":"38.88390097283633","_lon":"-77.04387903213501","timestamp":"2023-09-01T10:28:37Z","version":3,"changeset":140671934,"user":"MBTY1","uid":6237857}},{"type":"Feature","geometry":{"type":"Point","coordinates":[-76.9998932,38.8258831]},"properties":{"man_made":"surveillance","operator":"Metro Police Department","direction":"172","camera:type":"fixed","camera:mount":"pole","manufacturer":"Flock Safety","surveillance":"public","surveillance:type":"ALPR","surveillance:zone":"traffic","manufacturer:wikidata":"Q108485435","id":"node/13625464501","_lat":"38.82588424275741","_lon":"-76.99989080429077","timestamp":"2026-03-07T18:21:23Z","version":1,"changeset":179504667,"user":"Wedge A","uid":23307562}},{"type":"Feature","geometry":{"type":"Point","coordinates":[-76.9989646,38.8152832]},"properties":{"man_made":"surveillance","direction":"164","camera:type":"fixed","manufacturer":"Flock Safety","surveillance":"public","surveillance:type":"ALPR","surveillance:zone":"traffic","manufacturer:wikidata":"Q108485435","id":"node/13615376101","_lat":"38.815285064462245","_lon":"-76.99896812438965","timestamp":"2026-03-03T19:30:48Z","version":1,"changeset":179319739,"user":"UTIL221","uid":23866722}},{"type":"Feature","geometry":{"type":"Point","coordinates":[-76.9960683,38.8148425]},"properties":{"man_made":"surveillance","direction":"97","camera:type":"fixed","manufacturer":"Flock Safety","surveillance":"public","surveillance:type":"ALPR","surveillance:zone":"traffic","manufacturer:wikidata":"Q108485435","id":"node/13615377701","_lat":"38.81485036416922","_lon":"-76.99607133865356","timestamp":"2026-03-03T19:32:02Z","version":1,"changeset":179319784,"user":"UTIL221","uid":23866722}},{"type":"Feature","geometry":{"type":"Point","coordinates":[-77.0555485,38.8133019]},"properties":{"man_made":"surveillance","direction":"60-130","camera:type":"fixed","camera:mount":"street_lamp","manufacturer":"Flock Safety","surveillance":"public","surveillance:type":"ALPR","surveillance:zone":"traffic","manufacturer:wikidata":"Q108485435","id":"node/13574372715","_lat":"38.81329545294204","_lon":"-77.05555200576782","timestamp":"2026-02-19T14:12:10Z","version":2,"changeset":178774691,"user":"salty451","uid":23829794}},{"type":"Feature","geometry":{"type":"Point","coordinates":[-77.0550732,38.8132598]},"properties":{"man_made":"surveillance","direction":"271","camera:type":"fixed","manufacturer":"Flock Safety","surveillance":"public","surveillance:type":"ALPR","surveillance:zone":"traffic","manufacturer:wikidata":"Q108485435","id":"node/13706721102","_lat":"38.81326201361804","_lon":"-77.0550799369812","timestamp":"2026-04-04T20:52:36Z","version":1,"changeset":180872939,"user":"meelor55","uid":24013371}},{"type":"Feature","geometry":{"type":"Point","coordinates":[-77.0722711,38.8139219]},"properties":{"man_made":"surveillance","direction":"208-253","camera:type":"fixed","manufacturer":"Flock Safety","surveillance":"public","surveillance:type":"ALPR","surveillance:zone":"traffic","manufacturer:wikidata":"Q108485435","id":"node/13282294497","_lat":"38.81391407760378","_lon":"-77.07226753234863","timestamp":"2026-02-27T18:29:48Z","version":2,"changeset":179144040,"user":"canttouchme","uid":23589250}},{"type":"Feature","geometry":{"type":"Point","coordinates":[-77.0728873,38.8153108]},"properties":{"man_made":"surveillance","direction":"310","manufacturer":"Flock Safety","surveillance":"public","surveillance:type":"ALPR","surveillance:zone":"street","manufacturer:wikidata":"Q108485435","id":"node/13448556754","_lat":"38.81531850283642","_lon":"-77.07288980484009","timestamp":"2026-01-20T16:43:26Z","version":2,"changeset":177484492,"user":"AM2025","uid":23361715}},{"type":"Feature","geometry":{"type":"Point","coordinates":[-76.9648483,38.8138767]},"properties":{"highway":"traffic_signals","man_made":"surveillance","camera:type":"fixed","camera:mount":"traffic_signals","surveillance":"traffic","traffic_signals":"signal","camera:direction":"210;30","surveillance:type":"camera","surveillance:zone":"traffic","id":"node/50179564","_lat":"38.813880638570254","_lon":"-76.96485042572021","timestamp":"2022-01-03T16:52:49Z","version":6,"changeset":115720099,"user":"KB-01","uid":9509339}},{"type":"Feature","geometry":{"type":"Point","coordinates":[-76.962881,38.8157147]},"properties":{"man_made":"surveillance","camera:type":"fixed","camera:mount":"traffic_signals","surveillance":"traffic","camera:direction":"125;305","surveillance:type":"camera","surveillance:zone":"traffic","id":"node/50540608","_lat":"38.815719762102134","_lon":"-76.96287631988525","timestamp":"2022-01-02T23:11:29Z","version":5,"changeset":115688729,"user":"KB-01","uid":9509339}},{"type":"Feature","geometry":{"type":"Point","coordinates":[-77.0896879,38.8172674]},"properties":{"man_made":"surveillance","direction":"139-184","camera:type":"fixed","manufacturer":"Flock Safety","surveillance":"public","surveillance:type":"ALPR","surveillance:zone":"traffic","manufacturer:wikidata":"Q108485435","id":"node/13606252301","_lat":"38.81727462040405","_lon":"-77.08969116210938","timestamp":"2026-02-27T18:30:45Z","version":1,"changeset":179144071,"user":"canttouchme","uid":23589250}},{"type":"Feature","geometry":{"type":"Point","coordinates":[-77.0894339,38.8175649]},"properties":{"man_made":"surveillance","direction":"338-23","camera:type":"fixed","manufacturer":"Flock Safety","surveillance":"public","surveillance:type":"ALPR","surveillance:zone":"traffic","manufacturer:wikidata":"Q108485435","id":"node/13606249702","_lat":"38.81755883814438","_lon":"-77.08943367004395","timestamp":"2026-02-27T18:30:30Z","version":1,"changeset":179144063,"user":"canttouchme","uid":23589250}},{"type":"Feature","geometry":{"type":"Point","coordinates":[-77.0054461,38.8236121]},"properties":{"highway":"speed_camera","direction":"120","id":"node/12580439690","_lat":"38.823610734901706","_lon":"-77.00544834136963","timestamp":"2025-10-31T21:59:33Z","version":2,"changeset":174040432,"user":"KB-01","uid":9509339}},{"type":"Feature","geometry":{"type":"Point","coordinates":[-77.0020926,38.8263743]},"properties":{"highway":"speed_camera","direction":"335","id":"node/12580439691","_lat":"38.82636902548302","_lon":"-77.00210094451904","timestamp":"2025-02-11T23:16:03Z","version":1,"changeset":162410231,"user":"nikos2wheels","uid":22437239}},{"type":"Feature","geometry":{"type":"Point","coordinates":[-77.0077523,38.8279505]},"properties":{"highway":"speed_camera","direction":"180","id":"node/12580439688","_lat":"38.82795708370668","_lon":"-77.00774431228638","timestamp":"2025-02-11T23:16:03Z","version":1,"changeset":162410231,"user":"nikos2wheels","uid":22437239}},{"type":"Feature","geometry":{"type":"Point","coordinates":[-77.0076922,38.8271434]},"properties":{"highway":"speed_camera","direction":"170","id":"node/12580439687","_lat":"38.82713798441492","_lon":"-77.00770139694214","timestamp":"2025-02-11T23:16:03Z","version":1,"changeset":162410231,"user":"nikos2wheels","uid":22437239}},{"type":"Feature","geometry":{"type":"Point","coordinates":[-77.0062859,38.8244542]},"properties":{"highway":"speed_camera","direction":"335","id":"node/12580439689","_lat":"38.824446591816894","_lon":"-77.00628519058228","timestamp":"2025-10-31T21:59:33Z","version":2,"changeset":174040432,"user":"KB-01","uid":9509339}},{"type":"Feature","geometry":{"type":"Point","coordinates":[-77.0126884,38.826306]},"properties":{"highway":"speed_camera","direction":"180","id":"node/12580439686","_lat":"38.82630215909646","_lon":"-77.01267957687378","timestamp":"2025-02-11T23:16:03Z","version":1,"changeset":162410231,"user":"nikos2wheels","uid":22437239}},{"type":"Feature","geometry":{"type":"Point","coordinates":[-77.017217,38.8207902]},"properties":{"highway":"speed_camera","id":"node/49879986","_lat":"38.82078546589466","_lon":"-77.01720714569092","timestamp":"2023-04-17T05:03:00Z","version":4,"changeset":134998684,"user":"snake21","uid":2591427}},{"type":"Feature","geometry":{"type":"Point","coordinates":[-77.0166207,38.8223759]},"properties":{"highway":"speed_camera","direction":"5","id":"node/12580439684","_lat":"38.82237364865938","_lon":"-77.0166277885437","timestamp":"2025-02-11T23:16:03Z","version":1,"changeset":162410231,"user":"nikos2wheels","uid":22437239}},{"type":"Feature","geometry":{"type":"Point","coordinates":[-77.0176391,38.8184628]},"properties":{"highway":"speed_camera","id":"node/1681960035","_lat":"38.81846163991332","_lon":"-77.0176362991333","timestamp":"2023-04-17T05:03:00Z","version":3,"changeset":134998684,"user":"snake21","uid":2591427}},{"type":"Feature","geometry":{"type":"Point","coordinates":[-77.0126848,38.8286865]},"properties":{"highway":"speed_camera","direction":"180","id":"node/12580439685","_lat":"38.828692593407226","_lon":"-77.01267957687378","timestamp":"2025-02-11T23:16:03Z","version":1,"changeset":162410231,"user":"nikos2wheels","uid":22437239}},{"type":"Feature","geometry":{"type":"Point","coordinates":[-77.0079414,38.8359666]},"properties":{"highway":"speed_camera","direction":"165","enforcement":"red_light_camera","id":"node/12580454694","_lat":"38.83596370082569","_lon":"-77.00793743133545","timestamp":"2025-10-31T23:22:34Z","version":2,"changeset":174042215,"user":"KB-01","uid":9509339}},{"type":"Feature","geometry":{"type":"Point","coordinates":[-77.0034639,38.8413927]},"properties":{"highway":"speed_camera","direction":"215","id":"node/12580454695","_lat":"38.8413956526214","_lon":"-77.00347423553467","timestamp":"2025-10-31T21:59:33Z","version":2,"changeset":174040432,"user":"KB-01","uid":9509339}},{"type":"Feature","geometry":{"type":"Point","coordinates":[-77.0175192,38.873382]},"properties":{"highway":"speed_camera","direction":"0","id":"node/12578286268","_lat":"38.87337725837105","_lon":"-77.0175290107727","timestamp":"2025-02-11T06:55:27Z","version":1,"changeset":162377948,"user":"nikos2wheels","uid":22437239}},{"type":"Feature","geometry":{"type":"Point","coordinates":[-77.0175916,38.8738662]},"properties":{"highway":"speed_camera","direction":"185","id":"node/12578286269","_lat":"38.87386171754096","_lon":"-77.01759338378906","timestamp":"2025-02-11T06:55:27Z","version":1,"changeset":162377948,"user":"nikos2wheels","uid":22437239}},{"type":"Feature","geometry":{"type":"Point","coordinates":[-77.0419847,38.8643554]},"properties":{"highway":"speed_camera","direction":"35","id":"node/12580341156","_lat":"38.86435569130353","_lon":"-77.04199075698853","timestamp":"2026-03-28T15:39:48Z","version":2,"changeset":180547625,"user":"KB-01","uid":9509339}},{"type":"Feature","geometry":{"type":"Point","coordinates":[-77.0518837,38.8535689]},"properties":{"highway":"speed_camera","direction":"275","enforcement":"red_light_camera","id":"node/12580341157","_lat":"38.853561719991575","_lon":"-77.05188274383545","timestamp":"2025-02-11T23:09:48Z","version":1,"changeset":162410130,"user":"nikos2wheels","uid":22437239}},{"type":"Feature","geometry":{"type":"Point","coordinates":[-77.052372,38.8531404]},"properties":{"highway":"speed_camera","direction":"5","enforcement":"red_light_camera","id":"node/12580341158","_lat":"38.853143963714246","_lon":"-77.05237627029419","timestamp":"2025-02-11T23:09:48Z","version":1,"changeset":162410130,"user":"nikos2wheels","uid":22437239}},{"type":"Feature","geometry":{"type":"Point","coordinates":[-77.052507,38.853136]},"properties":{"highway":"speed_camera","direction":"5","id":"node/12580341159","_lat":"38.853143963714246","_lon":"-77.0525050163269","timestamp":"2025-02-11T23:09:48Z","version":1,"changeset":162410130,"user":"nikos2wheels","uid":22437239}},{"type":"Feature","geometry":{"type":"Point","coordinates":[-77.0530408,38.8486991]},"properties":{"highway":"speed_camera","id":"node/12580341160","_lat":"38.84869888498133","_lon":"-77.05304145812988","timestamp":"2025-02-11T23:09:48Z","version":1,"changeset":162410130,"user":"nikos2wheels","uid":22437239}},{"type":"Feature","geometry":{"type":"Point","coordinates":[-77.0746985,38.8658119]},"properties":{"highway":"speed_camera","direction":"70","enforcement":"red_light_camera","id":"node/12580437110","_lat":"38.86580924336795","_lon":"-77.0746922492981","timestamp":"2025-02-11T23:01:00Z","version":1,"changeset":162410012,"user":"nikos2wheels","uid":22437239}},{"type":"Feature","geometry":{"type":"Point","coordinates":[-77.0739702,38.8660168]},"properties":{"highway":"speed_camera","direction":"250","enforcement":"red_light_camera","id":"node/12580437111","_lat":"38.86600973097569","_lon":"-77.07396268844604","timestamp":"2025-02-11T23:01:00Z","version":1,"changeset":162410012,"user":"nikos2wheels","uid":22437239}},{"type":"Feature","geometry":{"type":"Point","coordinates":[-77.0818123,38.8232687]},"properties":{"highway":"speed_camera","maxspeed":"25 mph","direction":"290","id":"node/13414597427","_lat":"38.82327638938813","_lon":"-77.08181619644165","timestamp":"2025-12-28T23:32:47Z","version":1,"changeset":176552245,"user":"AM2025","uid":23361715}},{"type":"Feature","geometry":{"type":"Point","coordinates":[-77.0091644,38.8798787]},"properties":{"highway":"speed_camera","enforcement":"red_light_camera","id":"node/12578286270","_lat":"38.87987541850583","_lon":"-77.00916051864624","timestamp":"2025-10-30T19:31:16Z","version":2,"changeset":173992491,"user":"KB-01","uid":9509339}},{"type":"Feature","geometry":{"type":"Point","coordinates":[-76.9913591,38.8780791]},"properties":{"highway":"speed_camera","direction":"300","enforcement":"red_light_camera","id":"node/12580477712","_lat":"38.87807136164963","_lon":"-76.99135065078735","timestamp":"2025-02-11T23:34:38Z","version":1,"changeset":162410488,"user":"nikos2wheels","uid":22437239}},{"type":"Feature","geometry":{"type":"Point","coordinates":[-76.9917705,38.8777098]},"properties":{"highway":"speed_camera","direction":"90","enforcement":"red_light_camera","id":"node/12580477711","_lat":"38.87770386297123","_lon":"-76.99177980422974","timestamp":"2025-02-11T23:34:38Z","version":1,"changeset":162410488,"user":"nikos2wheels","uid":22437239}},{"type":"Feature","geometry":{"type":"Point","coordinates":[-76.990183,38.8716483]},"properties":{"highway":"speed_camera","direction":"155","id":"node/13733844861","_lat":"38.87165656635116","_lon":"-76.99019193649292","timestamp":"2026-04-16T05:29:42Z","version":1,"changeset":181395279,"user":"wambag","uid":326503}},{"type":"Feature","geometry":{"type":"Point","coordinates":[-76.9985964,38.8620476]},"properties":{"highway":"speed_camera","direction":"240","id":"node/12578291296","_lat":"38.862049996040014","_lon":"-76.99860334396362","timestamp":"2026-03-21T03:46:49Z","version":3,"changeset":180184673,"user":"KB-01","uid":9509339}},{"type":"Feature","geometry":{"type":"Point","coordinates":[-76.9936084,38.8604624]},"properties":{"highway":"speed_camera","direction":"170","id":"node/12580477710","_lat":"38.86046269860145","_lon":"-76.99360370635986","timestamp":"2026-03-21T03:46:49Z","version":2,"changeset":180184673,"user":"KB-01","uid":9509339}},{"type":"Feature","geometry":{"type":"Point","coordinates":[-76.9949768,38.8596627]},"properties":{"highway":"speed_camera","direction":"20","id":"node/12580477708","_lat":"38.859660682210745","_lon":"-76.99497699737549","timestamp":"2026-03-21T03:46:49Z","version":2,"changeset":180184673,"user":"KB-01","uid":9509339}},{"type":"Feature","geometry":{"type":"Point","coordinates":[-76.9958609,38.8570664]},"properties":{"highway":"speed_camera","direction":"190","id":"node/12580477705","_lat":"38.857070775848854","_lon":"-76.99585676193237","timestamp":"2026-03-28T15:39:48Z","version":2,"changeset":180547625,"user":"KB-01","uid":9509339}},{"type":"Feature","geometry":{"type":"Point","coordinates":[-76.9933793,38.8591199]},"properties":{"highway":"speed_camera","direction":"350","id":"node/12580477709","_lat":"38.85912599959153","_lon":"-76.99338912963867","timestamp":"2025-02-11T23:34:38Z","version":1,"changeset":162410488,"user":"nikos2wheels","uid":22437239}},{"type":"Feature","geometry":{"type":"Point","coordinates":[-76.9960049,38.8549868]},"properties":{"highway":"speed_camera","direction":"350","id":"node/12580477707","_lat":"38.854982072980874","_lon":"-76.9960069656372","timestamp":"2025-02-11T23:34:38Z","version":1,"changeset":162410488,"user":"nikos2wheels","uid":22437239}},{"type":"Feature","geometry":{"type":"Point","coordinates":[-76.9961833,38.855239]},"properties":{"highway":"speed_camera","direction":"175","enforcement":"red_light_camera","id":"node/12580477706","_lat":"38.85523272056395","_lon":"-76.99617862701416","timestamp":"2025-02-11T23:34:38Z","version":1,"changeset":162410488,"user":"nikos2wheels","uid":22437239}},{"type":"Feature","geometry":{"type":"Point","coordinates":[-76.995819,38.8451526]},"properties":{"highway":"speed_camera","direction":"270","id":"node/12580454697","_lat":"38.84515599174233","_lon":"-76.99581384658813","timestamp":"2025-02-11T23:34:38Z","version":1,"changeset":162410488,"user":"nikos2wheels","uid":22437239}},{"type":"Feature","geometry":{"type":"Point","coordinates":[-76.9951098,38.8260361]},"properties":{"highway":"speed_camera","direction":"230","id":"node/12580439693","_lat":"38.826034692922065","_lon":"-76.9951057434082","timestamp":"2025-10-31T21:59:33Z","version":2,"changeset":174040432,"user":"KB-01","uid":9509339}},{"type":"Feature","geometry":{"type":"Point","coordinates":[-76.9969311,38.824581]},"properties":{"highway":"speed_camera","direction":"45","id":"node/12580439692","_lat":"38.82458032801273","_lon":"-76.99692964553833","timestamp":"2025-10-31T21:59:33Z","version":2,"changeset":174040432,"user":"KB-01","uid":9509339}},{"type":"Feature","geometry":{"type":"Point","coordinates":[-76.9808554,38.8851666]},"properties":{"highway":"speed_camera","direction":"180","id":"node/12580477715","_lat":"38.88517039494985","_lon":"-76.9808578491211","timestamp":"2025-02-11T23:34:38Z","version":1,"changeset":162410488,"user":"nikos2wheels","uid":22437239}},{"type":"Feature","geometry":{"type":"Point","coordinates":[-76.98438,38.8800504]},"properties":{"highway":"speed_camera","direction":"300","id":"node/12580477714","_lat":"38.88004245849061","_lon":"-76.98437690734863","timestamp":"2025-02-11T23:34:38Z","version":1,"changeset":162410488,"user":"nikos2wheels","uid":22437239}},{"type":"Feature","geometry":{"type":"Point","coordinates":[-76.9849633,38.8799572]},"properties":{"highway":"speed_camera","direction":"120","id":"node/12580477713","_lat":"38.879958938547304","_lon":"-76.98495626449585","timestamp":"2025-02-11T23:34:38Z","version":1,"changeset":162410488,"user":"nikos2wheels","uid":22437239}},{"type":"Feature","geometry":{"type":"Point","coordinates":[-76.985957,38.8544982]},"properties":{"highway":"speed_camera","direction":"125","enforcement":"red_light_camera","id":"node/12580477704","_lat":"38.85449748514887","_lon":"-76.98596477508545","timestamp":"2025-02-11T23:34:38Z","version":1,"changeset":162410488,"user":"nikos2wheels","uid":22437239}},{"type":"Feature","geometry":{"type":"Point","coordinates":[-76.984681,38.845725]},"properties":{"highway":"speed_camera","direction":"75","id":"node/12580454698","_lat":"38.84572420348053","_lon":"-76.9846773147583","timestamp":"2025-02-11T23:34:38Z","version":1,"changeset":162410488,"user":"nikos2wheels","uid":22437239}},{"type":"Feature","geometry":{"type":"Point","coordinates":[-76.9825042,38.8508796]},"properties":{"highway":"speed_camera","direction":"85","enforcement":"traffic_signals","id":"node/12580477701","_lat":"38.85087132658515","_lon":"-76.98251008987427","timestamp":"2025-02-11T23:34:38Z","version":1,"changeset":162410488,"user":"nikos2wheels","uid":22437239}},{"type":"Feature","geometry":{"type":"Point","coordinates":[-76.9782743,38.8480961]},"properties":{"highway":"speed_camera","direction":"35","id":"node/12580454700","_lat":"38.8480972740378","_lon":"-76.9782829284668","timestamp":"2025-02-11T23:34:38Z","version":1,"changeset":162410488,"user":"nikos2wheels","uid":22437239}},{"type":"Feature","geometry":{"type":"Point","coordinates":[-76.980412,38.8470407]},"properties":{"highway":"speed_camera","direction":"160","enforcement":"red_light_camera","id":"node/12580454699","_lat":"38.847044442644176","_lon":"-76.98040723800659","timestamp":"2025-02-11T23:34:38Z","version":1,"changeset":162410488,"user":"nikos2wheels","uid":22437239}},{"type":"Feature","geometry":{"type":"Point","coordinates":[-76.977497,38.8516166]},"properties":{"highway":"speed_camera","direction":"90","enforcement":"traffic_signals","id":"node/12580477702","_lat":"38.851623310143964","_lon":"-76.97748899459839","timestamp":"2025-02-11T23:34:38Z","version":1,"changeset":162410488,"user":"nikos2wheels","uid":22437239}},{"type":"Feature","geometry":{"type":"Point","coordinates":[-76.9829533,38.85349]},"properties":{"highway":"speed_camera","direction":"235","enforcement":"red_light_camera","id":"node/12580477703","_lat":"38.853494879152066","_lon":"-76.98296070098877","timestamp":"2026-03-23T03:12:05Z","version":2,"changeset":180279171,"user":"KB-01","uid":9509339}},{"type":"Feature","geometry":{"type":"Point","coordinates":[-77.091629,38.8614116]},"properties":{"highway":"speed_camera","direction":"255","enforcement":"red_light_camera","id":"node/12580437109","_lat":"38.86141508131658","_lon":"-77.0916223526001","timestamp":"2025-02-11T23:01:00Z","version":1,"changeset":162410012,"user":"nikos2wheels","uid":22437239}},{"type":"Feature","geometry":{"type":"Point","coordinates":[-77.0922032,38.8611904]},"properties":{"highway":"speed_camera","direction":"65","enforcement":"red_light_camera","id":"node/12580437108","_lat":"38.86119787234654","_lon":"-77.09220170974731","timestamp":"2025-02-11T23:01:00Z","version":1,"changeset":162410012,"user":"nikos2wheels","uid":22437239}},{"type":"Feature","geometry":{"type":"Point","coordinates":[-77.1015698,38.8587178]},"properties":{"highway":"speed_camera","direction":"65","enforcement":"red_light_camera","id":"node/12580437106","_lat":"38.85872498498878","_lon":"-77.10157871246338","timestamp":"2025-11-01T15:35:20Z","version":2,"changeset":174068505,"user":"KB-01","uid":9509339}},{"type":"Feature","geometry":{"type":"Point","coordinates":[-77.1005717,38.8568839]},"properties":{"highway":"speed_camera","direction":"170","id":"node/12580437107","_lat":"38.85688697245806","_lon":"-77.10057020187378","timestamp":"2025-11-01T15:35:20Z","version":2,"changeset":174068505,"user":"KB-01","uid":9509339}},{"type":"Feature","geometry":{"type":"Point","coordinates":[-77.0871017,38.8265488]},"properties":{"highway":"speed_camera","maxspeed":"25 mph","direction":"105","id":"node/13414597428","_lat":"38.82655290772229","_lon":"-77.08709478378296","timestamp":"2025-12-28T23:32:47Z","version":1,"changeset":176552245,"user":"AM2025","uid":23361715}},{"type":"Feature","geometry":{"type":"Point","coordinates":[-77.0879191,38.8846684]},"properties":{"highway":"speed_camera","direction":"90","enforcement":"red_light_camera","id":"node/12578282472","_lat":"38.88466930998294","_lon":"-77.08791017532349","timestamp":"2025-02-11T07:11:48Z","version":1,"changeset":162378354,"user":"nikos2wheels","uid":22437239}},{"type":"Feature","geometry":{"type":"Point","coordinates":[-77.0876217,38.8846538]},"properties":{"highway":"speed_camera","direction":"265","enforcement":"red_light_camera","id":"node/12578282473","_lat":"38.88465260708986","_lon":"-77.08763122558594","timestamp":"2025-02-11T07:11:48Z","version":1,"changeset":162378354,"user":"nikos2wheels","uid":22437239}},{"type":"Feature","geometry":{"type":"Point","coordinates":[-77.019325,38.8151052]},"properties":{"highway":"speed_camera","direction":"25","id":"node/12580439683","_lat":"38.81510115312361","_lon":"-77.01933145523071","timestamp":"2025-02-11T23:16:03Z","version":1,"changeset":162410231,"user":"nikos2wheels","uid":22437239}},{"type":"Feature","geometry":{"type":"Point","coordinates":[-77.0564232,38.8138916]},"properties":{"highway":"speed_camera","direction":"355","id":"node/12580341161","_lat":"38.81389735808898","_lon":"-77.0564317703247","timestamp":"2025-02-11T23:09:48Z","version":1,"changeset":162410130,"user":"nikos2wheels","uid":22437239}},{"type":"Feature","geometry":{"type":"Point","coordinates":[-77.0572355,38.8179897]},"properties":{"highway":"speed_camera","direction":"165","id":"node/12580341162","_lat":"38.81799352190623","_lon":"-77.05722570419312","timestamp":"2025-02-11T23:09:48Z","version":1,"changeset":162410130,"user":"nikos2wheels","uid":22437239}},{"type":"Feature","geometry":{"type":"Point","coordinates":[-76.966987,38.8587507]},"properties":{"name":"6th District Police Center","amenity":"police","id":"node/737848452","_lat":"38.85875840295873","_lon":"-76.96695327758789","timestamp":"2010-05-17T18:29:39Z","version":1,"changeset":4731117,"user":"aude","uid":12055}},{"type":"Feature","geometry":{"type":"Point","coordinates":[-76.9596519,38.8697828]},"properties":{"ele":"44","name":"Washington District of Columbia Police Department - Patrol Support Branch and Family Liaison","source":"USGS Geonames","amenity":"police","addr:state":"DC","gnis:feature_id":"2335145","id":"node/367142464","_lat":"38.86978547532709","_lon":"-76.95965766906738","timestamp":"2024-08-12T19:22:34Z","version":3,"changeset":155164666,"user":"Mateusz Konieczny - bot account","uid":3199858}},{"type":"Feature","geometry":{"type":"Point","coordinates":[-76.9687,38.87234]},"properties":{"ele":"18","name":"Washington District of Columbia Police Department District 6 Substation","source":"USGS Geonames","amenity":"police","addr:state":"DC","gnis:feature_id":"2335133","id":"node/367142215","_lat":"38.872324801209146","_lon":"-76.96866989135742","timestamp":"2024-08-12T19:22:25Z","version":4,"changeset":155164666,"user":"Mateusz Konieczny - bot account","uid":3199858}},{"type":"Feature","geometry":{"type":"Point","coordinates":[-76.9977,38.8135]},"properties":{"ele":"34","name":"Forest Heights Police Station","source":"USGS Geonames","amenity":"police","addr:state":"MD","gnis:feature_id":"2457560","id":"node/367798231","_lat":"38.81349608855618","_lon":"-76.9976806640625","timestamp":"2024-08-13T13:33:38Z","version":2,"changeset":155196162,"user":"Mateusz Konieczny - bot account","uid":3199858}},{"type":"Feature","geometry":{"type":"Point","coordinates":[-77.0420967,38.8514919]},"properties":{"amenity":"police","id":"node/929733920","_lat":"38.85147291406818","_lon":"-77.04205513000488","timestamp":"2019-07-17T01:36:01Z","version":5,"changeset":72327213,"user":"HeyItsAdam","uid":7466976}},{"type":"Feature","geometry":{"type":"Point","coordinates":[-77.0341759,38.8763875]},"properties":{"name":"National Capitol Region US Park Police Headquarters","amenity":"police","addr:city":"Washington","addr:state":"DC","addr:street":"Ohio Drive Southwest","addr:country":"US","addr:housenumber":"1100","id":"node/611150915","_lat":"38.87640089779765","_lon":"-77.03415870666504","timestamp":"2014-12-30T01:50:57Z","version":3,"changeset":27791036,"user":"RoadGeek_MD99","uid":475877}},{"type":"Feature","geometry":{"type":"Polygon","coordinates":[[[-77.0144319,38.8189536],[-77.0144974,38.8189093],[-77.014565,38.8189101],[-77.0146306,38.8189109],[-77.0146359,38.8186305],[-77.0145024,38.8186289],[-77.0144536,38.8186284],[-77.0142789,38.8186264],[-77.0142738,38.8189068],[-77.0143742,38.8189075],[-77.0144319,38.8189536]]]},"properties":{"name":"Kennel","source":"dcgis","amenity":"police","building":"yes","operator":"Washington District of Columbia Police Department","dcgis:dataset":"buildings","mappingdc:gid":"60","dcgis:captureyear":"20050404","dcgis:featurecode":"2000","id":"way/55375942","_lat":"38.81881272620309","_lon":"-77.01446056365967","timestamp":"2025-05-26T22:53:35Z","version":2,"changeset":166800446,"user":"ice_fly","uid":2987813}},{"type":"Feature","geometry":{"type":"Polygon","coordinates":[[[-77.004496,38.817777],[-77.0042649,38.8178365],[-77.0042877,38.8178904],[-77.0041508,38.8179267],[-77.0037887,38.8180189],[-77.0038185,38.8180892],[-77.0038488,38.8180814],[-77.003863,38.818115],[-77.0038223,38.8181255],[-77.0038332,38.8181572],[-77.0041363,38.8182319],[-77.0041944,38.818217],[-77.0042036,38.8182385],[-77.0044039,38.818187],[-77.0044104,38.8182023],[-77.0044477,38.8181927],[-77.0044385,38.818171],[-77.0044905,38.8181576],[-77.0044464,38.8180538],[-77.0045257,38.8180334],[-77.0044918,38.8179535],[-77.0045631,38.8179351],[-77.004496,38.817777]]]},"properties":{"ele":"8","fax":"+1 301-749-4912","name":"Prince George's County Police Department Division IV - Oxon Hill","email":"PGPD_Division4@co.pg.md.us","phone":"+1 301-749-4901","source":"USGS Geonames","amenity":"police","building":"yes","operator":"Prince George's County Police Department","addr:city":"Oxon Hill","addr:state":"MD","addr:street":"Indian Head Highway","addr:postcode":"20745","opening_hours":"24/7","operator:short":"PGPD","gnis:feature_id":"2331625","addr:housenumber":"5135","id":"way/184446843","_lat":"38.81801024007483","_lon":"-77.00416088104248","timestamp":"2024-10-19T20:07:53Z","version":2,"changeset":158105981,"user":"jpeterson1346","uid":1830039}},{"type":"Feature","geometry":{"type":"Polygon","coordinates":[[[-77.0135365,38.8216125],[-77.0136895,38.82135],[-77.0134884,38.8212782],[-77.0134541,38.821341],[-77.0132019,38.8212511],[-77.0130954,38.8214338],[-77.0129138,38.8213729],[-77.0129341,38.8213381],[-77.0129365,38.8213341],[-77.0127336,38.8212617],[-77.0124465,38.8217541],[-77.0126503,38.8218268],[-77.0128164,38.8215418],[-77.0129946,38.8216054],[-77.0129554,38.8216767],[-77.0134049,38.8218371],[-77.0134094,38.8218295],[-77.0134976,38.8216781],[-77.0135636,38.8217003],[-77.0136013,38.8216357],[-77.0135981,38.8216346],[-77.0135365,38.8216125]]]},"properties":{"name":"Police Academy","source":"dcgis","amenity":"police","building":"yes","operator":"Washington District of Columbia Police Department","dcgis:dataset":"buildings","mappingdc:gid":"40909","dcgis:captureyear":"19990331","dcgis:featurecode":"2000","id":"way/55376151","_lat":"38.82155448449461","_lon":"-77.01308727264404","timestamp":"2025-05-26T22:53:35Z","version":3,"changeset":166800446,"user":"ice_fly","uid":2987813}},{"type":"Feature","geometry":{"type":"Polygon","coordinates":[[[-77.015872,38.8178698],[-77.0158198,38.8178693],[-77.015821,38.8178015],[-77.0156186,38.8177994],[-77.0156185,38.8178053],[-77.0156174,38.8178687],[-77.0156162,38.8179349],[-77.0156133,38.8181086],[-77.015613,38.8181206],[-77.0156126,38.8181488],[-77.0156109,38.8182464],[-77.0158149,38.8182486],[-77.0158161,38.8181825],[-77.01591,38.8181836],[-77.015923,38.8181837],[-77.0160143,38.8181847],[-77.0160162,38.818075],[-77.0160165,38.8180539],[-77.0160197,38.8178714],[-77.015872,38.8178698]]]},"properties":{"ele":"12","name":"Training","source":"dcgis;USGS Geonames","amenity":"police","building":"yes","operator":"Washington District of Columbia Police Department","addr:city":"Washington","addr:state":"DC","addr:street":"Blue Plains Drive Southwest","dcgis:dataset":"buildings","mappingdc:gid":"37545","gnis:feature_id":"2335142","dcgis:captureyear":"19990331","dcgis:featurecode":"2000","id":"way/55375984","_lat":"38.81801024007483","_lon":"-77.0158338546753","timestamp":"2025-05-26T22:53:35Z","version":4,"changeset":166800446,"user":"ice_fly","uid":2987813}},{"type":"Feature","geometry":{"type":"Polygon","coordinates":[[[-77.0205278,38.8739704],[-77.0205655,38.8740458],[-77.0206056,38.8741225],[-77.0207051,38.8742769],[-77.0213291,38.8735933],[-77.021372,38.873541],[-77.021372,38.8735076],[-77.0212594,38.8733009],[-77.0212218,38.8732842],[-77.0211789,38.8733051],[-77.0206183,38.8739482],[-77.0205278,38.8739704]]]},"properties":{"amenity":"police","man_made":"pier","id":"way/521118443","_lat":"38.873794894243645","_lon":"-77.02094078063965","timestamp":"2026-03-28T15:39:48Z","version":4,"changeset":180547625,"user":"KB-01","uid":9509339}},{"type":"Feature","geometry":{"type":"Polygon","coordinates":[[[-77.0207774,38.8738121],[-77.0205655,38.8740458],[-77.0206056,38.8741225],[-77.0206712,38.8741589],[-77.0206782,38.8741723],[-77.020898,38.8739301],[-77.0208919,38.8739184],[-77.0209128,38.8738954],[-77.0209301,38.8739051],[-77.0209747,38.8738559],[-77.0209677,38.8738521],[-77.0211317,38.8736714],[-77.0211121,38.8736606],[-77.0210891,38.8736165],[-77.021113,38.8736297],[-77.0211533,38.8735852],[-77.021071,38.8735397],[-77.0210277,38.8735874],[-77.0210474,38.8736016],[-77.0209962,38.873599],[-77.020978,38.8735889],[-77.0208847,38.8736917],[-77.0208958,38.8736979],[-77.0207914,38.8738129],[-77.0207774,38.8738121]]]},"properties":{"name":"Police Harbor Patrol","source":"dcgis","amenity":"police","dataset":"buildings","building":"yes","addr:street":"Water Street Southwest","addr:housenumber":"550","dcgis:captureyear":"19990331","id":"way/67255083","_lat":"38.87382830603367","_lon":"-77.02085494995117","timestamp":"2017-09-04T01:01:19Z","version":3,"changeset":51705148,"user":"RunTrails","uid":5215025}},{"type":"Feature","geometry":{"type":"Polygon","coordinates":[[[-77.0690239,38.8669826],[-77.0690035,38.8669336],[-77.0689893,38.8668995],[-77.0689486,38.8668017],[-77.0686942,38.866867],[-77.0684761,38.8669243],[-77.0684844,38.8669421],[-77.0685515,38.867102],[-77.0689205,38.8670087],[-77.0690239,38.8669826]]]},"properties":{"ele":"46","name":"Virginia State Police Division 7 Area 45 Office","email":"area45@vsp.virginia.gov","phone":"+1 703-845-6300","source":"USGS Geonames","amenity":"police","name:zh":"弗吉尼亚州警察局第7分局第45区办公室","website":"https://www.vsp.virginia.gov/Div7.shtm","building":"commercial","addr:city":"Arlington","addr:state":"VA","addr:street":"Columbia Pike","name:zh-Hans":"弗吉尼亚州警察局第7分局第45区办公室","addr:postcode":"22204","gnis:feature_id":"2332128","addr:housenumber":"1426","id":"way/80300536","_lat":"38.86694533213978","_lon":"-77.0687484741211","timestamp":"2024-06-13T11:00:53Z","version":6,"changeset":152627829,"user":"发光的电子管","uid":21023859}},{"type":"Feature","geometry":{"type":"Polygon","coordinates":[[[-77.0123091,38.8771139],[-77.0125573,38.8771142],[-77.0125573,38.8771014],[-77.0129055,38.8771017],[-77.012917,38.8771018],[-77.0129171,38.8770163],[-77.0129594,38.877016],[-77.0129595,38.877022],[-77.0132299,38.8770203],[-77.0132396,38.8770202],[-77.0132398,38.8769061],[-77.0132399,38.876881],[-77.0131222,38.8768818],[-77.013122,38.8768651],[-77.0133741,38.8768635],[-77.0133744,38.8766881],[-77.0131178,38.8766897],[-77.0131177,38.8766825],[-77.0130581,38.8766824],[-77.0130234,38.8766823],[-77.012965,38.8766823],[-77.012965,38.8766894],[-77.0125897,38.876689],[-77.0125896,38.8766827],[-77.0125869,38.8766827],[-77.0125639,38.8766829],[-77.012564,38.8766918],[-77.0125451,38.8766919],[-77.0125443,38.8766152],[-77.0123039,38.8766149],[-77.0123072,38.8769279],[-77.0123074,38.8769475],[-77.0123091,38.8771139]]]},"properties":{"name":"Metropolitan Police Department First District Headquarters","source":"dcgis","amenity":"police","building":"yes","operator":"Metropolitan Police Department","dcgis:dataset":"buildings","mappingdc:gid":"973","operator:short":"MPD","dcgis:captureyear":"19990331","dcgis:featurecode":"2000","operator:wikidata":"Q1350854","id":"way/48036787","_lat":"38.876868631131615","_lon":"-77.01282978057861","timestamp":"2025-02-03T01:13:28Z","version":7,"changeset":162067861,"user":"Dogman15","uid":14845392}},{"type":"Feature","geometry":{"type":"Polygon","coordinates":[[[-76.9992626,38.8835719],[-76.9993497,38.883572],[-76.9993502,38.8833734],[-76.9993503,38.8833452],[-76.9991423,38.8833449],[-76.9991417,38.8835457],[-76.9991417,38.8835717],[-76.9991779,38.8835717],[-76.9992626,38.8835719]]]},"properties":{"ele":"23","name":"Washington District of Columbia Police Department District 1 Substation","source":"dcgis;USGS Geonames","amenity":"police","building":"yes","addr:city":"Washington","addr:state":"DC","addr:street":"E Street Southeast","addr:country":"US","addr:postcode":"20003","dcgis:dataset":"buildings","mappingdc:gid":"8696","gnis:feature_id":"2335139","addr:housenumber":"500","dcgis:captureyear":"19990331","dcgis:featurecode":"2000","id":"way/48039178","_lat":"38.88344998839669","_lon":"-76.99922561645508","timestamp":"2024-08-12T19:29:40Z","version":6,"changeset":155164666,"user":"Mateusz Konieczny - bot account","uid":3199858}},{"type":"Feature","geometry":{"type":"Polygon","coordinates":[[[-76.9693973,38.8533964],[-76.969397,38.8535918],[-76.9693969,38.8536104],[-76.9695772,38.8536106],[-76.9695773,38.8535879],[-76.9697479,38.8535882],[-76.9697479,38.8536106],[-76.9697805,38.8536106],[-76.9697807,38.8535224],[-76.9697749,38.8535215],[-76.9697697,38.8535121],[-76.9697619,38.8535074],[-76.9697334,38.8535028],[-76.9697166,38.8534957],[-76.9697033,38.853485],[-76.9696923,38.8534643],[-76.9696884,38.8532451],[-76.9696823,38.8532211],[-76.9696579,38.85319],[-76.9696193,38.8531695],[-76.9695889,38.8531635],[-76.9695166,38.8531626],[-76.9695035,38.8531682],[-76.9694989,38.8531794],[-76.9693977,38.8531793],[-76.9693976,38.8532388],[-76.9693411,38.8532392],[-76.969328,38.8532473],[-76.9693286,38.8533915],[-76.9693382,38.8533966],[-76.9693973,38.8533964]]]},"properties":{"ele":"87","name":"Metropolitan Police Dept 7D","source":"USGS Geonames","amenity":"police","building":"yes","addr:state":"DC","addr:street":"Alabama Avenue Southeast","dcgis:gis_id":"32897","addr:postcode":"20020","gnis:feature_id":"2335132","addr:housenumber":"2455","id":"way/295821716","_lat":"38.853377907147106","_lon":"-76.96957111358643","timestamp":"2024-08-12T19:38:26Z","version":3,"changeset":155164666,"user":"Mateusz Konieczny - bot account","uid":3199858}},{"type":"Feature","geometry":{"type":"Polygon","coordinates":[[[-76.9928345,38.8659664],[-76.9927593,38.8658371],[-76.9924823,38.8659362],[-76.9925174,38.866006],[-76.9924877,38.8660151],[-76.992514,38.8660673],[-76.9922119,38.8661595],[-76.9920199,38.8665496],[-76.9917731,38.8668806],[-76.9914848,38.8674048],[-76.99228,38.8676658],[-76.9927615,38.8668012],[-76.9934092,38.866607],[-76.9930539,38.865897],[-76.9928345,38.8659664]]]},"properties":{"faa":"DC03","lit":"yes","name":"US Park Police Eagle's Nest Heliport","police":"helicopter_unit","aeroway":"heliport","surface":"concrete","operator":"United States Park Police","wikidata":"Q61671721","operator:type":"government","id":"way/888038185","_lat":"38.866744841642316","_lon":"-76.99244499206543","timestamp":"2026-01-16T14:47:02Z","version":3,"changeset":177301690,"user":"willkmis","uid":11523236}}]}